Brand Name,Address,latitude,longitude,charging type,charging port,cost per unit,payment type
Massive Mobility,"175, Patparganj Industrial Area, Patparganj",28.642213,77.314837,Charging,2,15,Cash/E-Wallet
Massive Mobility,"B-50/9, Haruan Basti, Kondli",28.616411,77.328853,Charging,1,15,Cash/E-Wallet
Massive Mobility,"Plot No 2, Musddi Chowk, Sarai Kale Khan Hazrat Nizamuddin",28.586625,77.255717,Charging,1,15,Cash/E-Wallet
Massive Mobility,"H.no. 16, Gali no 2, Jagat Puri",28.689011,77.302756,Charging,1,15,Cash/E-Wallet
Massive Mobility,"Plot no. 1, Sarai kale khan Hazrat Nizamuddin",28.586483,77.255344,Charging,1,15,Cash/E-Wallet
Massive Mobility,Jaitpur Gurudwara Road Hari Nagar,28.505096,77.319491,Charging,1,15,Cash/E-Wallet
Massive Mobility,"House no. 125, GF, Opp. Ordinance Depot Pashchim Vihar",28.670794,77.116681,Charging,10,15,Cash/E-Wallet
Massive Mobility,"B-14/A, Deoli Rd, Duggal Colony Khanpur",28.509692,77.232363,Charging,1,15,Cash/E-Wallet
Massive Mobility,"WZ 1022, Pocket D2A, Nangal Raya Mayapuri",28.606645,77.108468,Charging,1,15,Cash/E-Wallet
Massive Mobility,"1242-1282, Main Mubarakpur Road, Prem Nagar-2, Kirari Pashchim Vihar",28.695075,77.059357,Charging,2,15,Cash/E-Wallet
Massive Mobility,"Plot no. 33/3, JJ colony Shakurpur",28.684605,77.141202,Charging,1,15,Cash/E-Wallet
Massive Mobility,"K.H.No 33/9 &amp; 33/12, Village Samaipur, Delhi Engg. College, Bawana Road Samaipur",28.744364,77.120604,Charging,1,15,Cash/E-Wallet
Massive Mobility,"489/55/11, Maharishi Dayanand Marg, Block A, Corner Market, Shivalik Colony, Malviya Nagar",28.540548,77.212697,Charging,1,15,Cash/E-Wallet
Massive Mobility,"Shop-2, Maharaj Singh Market, M.B. Road Lal Kuan",28.502182,77.284986,Charging,1,15,Cash/E-Wallet
Massive Mobility,"1-5928-29, Loni Road, Kabool Nagar Shahdara",28.676254,77.292422,Charging,1,15,Cash/E-Wallet
Massive Mobility,"Mangal Pandey Marg, Nand Nagri Mandoli",28.697203,77.313596,Charging,1,15,Cash/E-Wallet
Massive Mobility,"559, Jheel Khurenja Krishna Nagar",28.656915,77.275707,Charging,1,15,Cash/E-Wallet
Massive Mobility,"F-725, Baba Farid Puri Patel nagar",28.658606,77.169682,Charging,1,15,Cash/E-Wallet
Revos,"Zypp Electric Hub, Ghazipur",28.6286659240722,77.3186950683593,Charging,1,5,E-Wallet/Card/UPI
Revos,Zypp Electric Ghazipur Station,28.6287193298339,77.3186645507812,Charging,1,5,E-Wallet/Card/UPI
Revos,Zypp Electric Ghazipur Station,28.6286602020263,77.3188171386718,Charging,1,5,E-Wallet/Card/UPI
Revos,Zypp Electric Ghazipur Station,28.6287059783935,77.3187637329101,Charging,1,5,E-Wallet/Card/UPI
Revos,Zypp Electric Ghazipur Station,28.6287193298339,77.3187179565429,Charging,1,5,E-Wallet/Card/UPI
Revos,Zypp Electric Ghazipur Station,28.6287051491766,77.3187561705708,Charging,1,,E-Wallet/Card/UPI
Revos,Zypp Electric Ghazipur Station,28.6287063263217,77.3187139257788,Charging,1,,E-Wallet/Card/UPI
Revos,Zypp Electric Gazipur Station,28.6286642433747,77.3187387362122,Charging,1,10,E-Wallet/Card/UPI
Revos,Zypp Electric Gazipur Station,28.6287083863256,77.3186981678009,Charging,1,10,E-Wallet/Card/UPI
Revos,G57 Vikas Marg Laxmi Nagar Delhi 110092,28.6327991801547,77.2807522863149,Charging,1,15,E-Wallet/Card/UPI
Revos,"2/115 Geeta colony, Near Ramlila ground",28.6544140864978,77.2735257446765,Charging,1,12,E-Wallet/Card/UPI
Revos,"Ps Enterprise Shop No-9 GT Road Shahdara, near petrol pump",28.6755735995546,77.2908591851592,Charging,1,,E-Wallet/Card/UPI
Revos,"PS Enterprise, Shoop No-9, DDA market, Shahdara, Near petrol pump",28.6754582908164,77.2910425812005,Charging,1,,E-Wallet/Card/UPI
Revos,scope minar PNB Bank,28.6386623382568,77.2850723266601,Charging,1,15,E-Wallet/Card/UPI
Revos,"557 A, G. T. Road, opp.UCO bank,Shahdara,Delhi-110032",28.6761207260215,77.2954695671796,Charging,1,30,E-Wallet/Card/UPI
Revos,"B 60, DDA Colony, New jafrabad,Delhi",28.6844764040059,77.2797001898288,Charging,1,30,E-Wallet/Card/UPI
Revos,"B60, DDA Colony, New Jafrabad Delhi",28.6844690507611,77.2795865312218,Charging,1,30,E-Wallet/Card/UPI
Revos,"h. no. 830, st. no. 30, indra chowk, jafrabad",28.6804535137299,77.2715053707361,Charging,1,30,E-Wallet/Card/UPI
Revos,C-147 20 futa road meet Nagar Delhi 110093,28.7041691877432,77.3009637370705,Charging,1,40,E-Wallet/Card/UPI
Revos,kondli sabzi Mandi chowk near agrawal sweets shop name  Ali store Delhi 110096,28.6144189322315,77.3262247815728,Charging,1,50,E-Wallet/Card/UPI
Revos,Apex Graphics 12A/52A Road no 66 near crispers food maujpur delhi 110053,28.6846755296781,77.2753104194998,Charging,1,40,E-Wallet/Card/UPI
Revos,12A/52A Road no.66 near crispers food maujur delhi 110053,28.6846667058011,77.2752960026264,Charging,1,40,E-Wallet/Card/UPI
Revos,12A/52A Road no.66 near crispers food maujur delhi 110053,28.6846825887792,77.2753006964922,Charging,1,40,E-Wallet/Card/UPI
Revos,"WS-94, Gali No. 3, BudhBazaar Road, Sudamapuri, Babarpur, Shahdara, Delhi 110032",28.6862235203286,77.2771621495485,Charging,1,40,E-Wallet/Card/UPI
Revos,"WS-94, Gali No 3, BudhBazaar Road, Sudamapuri, Babarpur, Shahdara, Delhi 110032",28.6860014558137,77.2770478203892,Charging,1,40,E-Wallet/Card/UPI
Revos,"WS-94, Gali No 3, BudhBazaar Road, Sudamapuri, Babarpur, Shahdara, Delhi 1110032",28.686028515356,77.2769827768206,Charging,1,40,E-Wallet/Card/UPI
Revos,"4 west laxmi market,  khureji,  delhi -51",28.6441955566406,77.279312133789,Charging,1,20,E-Wallet/Card/UPI
Revos,555/1karkari road vishwas nagar delhi,28.6662649521058,77.2936218604445,Charging,1,30,E-Wallet/Card/UPI
Revos,555/1 karkari road viswash nagar,28.6662620102966,77.2936634346842,Charging,1,40,E-Wallet/Card/UPI
Revos,C-1/207 harsh vihar near lal mandir 110093,28.7013251550705,77.322078756988,Charging,1,40,E-Wallet/Card/UPI
Revos,C1/207 Harsh vihar Delhi 93,28.7013580922991,77.3222148790955,Charging,1,40,E-Wallet/Card/UPI
Revos,C1/207 Harsh vihar Delhi 93,28.701225755157,77.3219020664691,Charging,1,40,E-Wallet/Card/UPI
Revos,67 Radhey Shyam Park Parwana Road Delhi,28.64670753479,77.2871551513671,Charging,1,10,E-Wallet/Card/UPI
Revos,"F151 naveen shahdara PANCHHEEL Garden

Delhi",28.6766825572154,77.2798312827944,Charging,1,50,E-Wallet/Card/UPI
Revos,10/114 Subhash gali  60 feeta  Road Vishwas nagar shahdra  Delhi 110032,28.6673625353583,77.2991539165377,Charging,1,40,E-Wallet/Card/UPI
Revos,10/114 Subhash gali 60 feeta Road vishwas nagar shahdra Delhi 110032,28.6673598877577,77.2991374880075,Charging,1,40,E-Wallet/Card/UPI
Revos,a/86 meet nagar main mangal bazar road delhi 110094,28.7026952762101,77.2964049875736,Charging,1,40,E-Wallet/Card/UPI
Revos,10/114 subhash gali 60 feet road vishwas nagar shahdra Delhi 110032,28.6673334117485,77.299181073904,Charging,1,40,E-Wallet/Card/UPI
Revos,10/114 Subhash gali  60 feeta Road Vishwas nagar shahdra Delhi  110032,28.6673851870492,77.2991861030459,Charging,1,40,E-Wallet/Card/UPI
Revos,19/114 Subhash gali 60 feeta Road Vishwas nagar shahdra Delhi 110032,28.6673804802047,77.299159951508,Charging,1,40,E-Wallet/Card/UPI
Revos,"K-34, New Gobind Pura Extension, Near Punajb Sweet Shop, Som Bazar Road",28.6506242451985,77.2854692861437,Charging,1,,E-Wallet/Card/UPI
Revos,27/127gali no 6 vishwas nagar shahadra delhi 110032,28.6643371582031,77.2920379638671,Charging,1,,E-Wallet/Card/UPI
Revos,shop no. 22 gali no. 4d aram park shastri nagar Delhi 110031,28.6438462634438,77.2781297564506,Charging,1,30,E-Wallet/Card/UPI
Revos,"7/333A Shri Krishna Gali opp Indra Park, Jwala Nagar Shahdara East Delhi 110032",28.6695035397743,77.298567853868,Charging,1,2,E-Wallet/Card/UPI
Revos,c-1/1 golden park shivpuri main road extn opposite Dr lal path labs,28.6535377502441,77.2797012329101,Charging,1,50,E-Wallet/Card/UPI
Revos,J-6 Pal Chowk M.S park Delhi 110032,28.6799708271068,77.2982919216156,Charging,1,50,E-Wallet/Card/UPI
Revos,J-6 pal Chowk M.S park Delhi 110032,28.6800752476191,77.2980062663555,Charging,1,50,E-Wallet/Card/UPI
Revos,"Shpo no 143 135 DDA  indra Markit old seema puri 
delhi95",28.680389390955,77.3269359022378,Charging,1,40,E-Wallet/Card/UPI
Revos,Shop no.15 Tahirpur Red light,28.6879570779821,77.3205901309848,Charging,1,40,E-Wallet/Card/UPI
Revos,"Home no.98,O block fhase 4 shive vihar dehli karaval nagar 94 near m/s saksham clinic",28.7264766693115,77.2830429077148,Charging,1,30,E-Wallet/Card/UPI
Revos,h.no 120 main nala road shiv vihar krawal nagar,28.7181973629522,77.2798420116305,Charging,1,40,E-Wallet/Card/UPI
Revos,h.no 120 main nala road shiv vihar krawal nagar,28.7182032436524,77.2797531634569,Charging,1,40,E-Wallet/Card/UPI
Revos,Laxmi Nagar,28.6361158990998,77.2768037393689,Charging,1,,E-Wallet/Card/UPI
Revos,c-1/220 new kondli near R K tower,28.6054389463005,77.3338291794061,Charging,1,40,E-Wallet/Card/UPI
Revos,"c-1/220 new kondli near R,K g tower Delhi4",28.6054613170117,77.3338969051837,Charging,1,40,E-Wallet/Card/UPI
Revos,naveen shahdara PANCHHEEL garden delhi,28.6763342810607,77.2795114293694,Charging,1,,E-Wallet/Card/UPI
Revos,E11/A162Shastri park near petrol pump Delhi 53,28.6725505272369,77.2548324242234,Charging,1,40,E-Wallet/Card/UPI
Revos,E11/A162shastri park Delhi 53,28.67248434048,77.255283370614,Charging,1,40,E-Wallet/Card/UPI
Revos,I 115 sunder nagri delhi 93,28.6956262702999,77.3222071677446,Charging,1,50,E-Wallet/Card/UPI
Revos,c53 shashi garden mayur vihar phase 1 delhi,28.6100790007953,77.2967208176851,Charging,1,40,E-Wallet/Card/UPI
Revos,c53 shashi garden mayur vihar phase 1 delhi,28.6100042387911,77.2966024652123,Charging,1,40,E-Wallet/Card/UPI
Revos,Aggarwal  Auto parts  D-247  Dilshad garden  110095,28.6794790198014,77.3180896416306,Charging,1,50,E-Wallet/Card/UPI
Revos,Aggarwal Auto parts D-247 Dilshad Garden  Delhi  110095,28.6795469670008,77.3182130232453,Charging,1,50,E-Wallet/Card/UPI
Revos,Om Sai motors Tahirpur,28.6886073752913,77.3195118829608,Charging,1,50,E-Wallet/Card/UPI
Revos,Om sai motors Tahirpur,28.6885856105439,77.3195668682456,Charging,1,50,E-Wallet/Card/UPI
Revos,Om Sai motors Tahirpur,28.6885876693715,77.3195631802082,Charging,1,50,E-Wallet/Card/UPI
Revos,"A-32/33, main road, sombazaar, 4Â½ Pusta, Gamri extension",28.6943089950166,77.2549735754728,Charging,1,45,E-Wallet/Card/UPI
Revos,1249 ground flour janta flat gtb enclave delhi93,28.6896826658253,77.3140659928321,Charging,1,40,E-Wallet/Card/UPI
Revos,E6 kirshana nagar near Gyan deep siksha Niketan delhi,28.6622978473633,77.2819441929459,Charging,1,40,E-Wallet/Card/UPI
Revos,E6 kirshana nagar near Gyan deep siksha Niketan delhi,28.6621831124002,77.2819307819008,Charging,1,40,E-Wallet/Card/UPI
Revos,S-32 KRISHNA NAGAR NEAR BY RATNA DEVI SCHOOL DOMINOS CHACHI BUILDING SATNAAM ROAD DELHI 110051,28.6616288525021,77.2804002463817,Charging,1,40,E-Wallet/Card/UPI
Revos,pocket F gate no 4 near Greenfield public school delhe,28.6861382240806,77.3127667978406,Charging,1,40,E-Wallet/Card/UPI
Revos,south ganesh nagar delhi,28.625391138983,77.2858860343694,Charging,1,40,E-Wallet/Card/UPI
Revos,E25 pandav nagar near hero showroom delhi,28.6172791565822,77.2867564111948,Charging,1,40,E-Wallet/Card/UPI
Revos,57 tanchua mohlla village chilla,28.5957625784409,77.299471758306,Charging,1,40,E-Wallet/Card/UPI
Revos,Main road Tahir pur h no 136,28.6867279432715,77.3190756887197,Charging,1,40,E-Wallet/Card/UPI
Revos,Near CNN pump tahirpur  Delhi  110095,28.6858232156108,77.3182629793882,Charging,1,40,E-Wallet/Card/UPI
Revos,C 81 radhy shyam park extension gali no 4 near jagatpuri police station,28.6437688772892,77.2851457446813,Charging,1,40,E-Wallet/Card/UPI
Revos,38/5/2 Aram park shastri nagar laxmi nagar road,28.6448187347789,77.2792683541774,Charging,1,100,E-Wallet/Card/UPI
Revos,38/5/2 Aram park shastri nagar laxmi nagar road,28.644766948333,77.2792375087738,Charging,1,20,E-Wallet/Card/UPI
Revos,21 block trilokpuri,28.6056414599338,77.3062973096966,Charging,1,40,E-Wallet/Card/UPI
Revos,"217, Main Chhatarpur Rd",28.6844696390207,77.327311746776,Charging,1,40,E-Wallet/Card/UPI
Revos,Shop No. 2 Prop No. C-21 Dilshad Colony,28.6844040480549,77.3272933065891,Charging,1,40,E-Wallet/Card/UPI
Revos,16/ 124 geeta colony,28.6472091222168,77.2788861393928,Charging,1,15,E-Wallet/Card/UPI
Revos,ekta bike  scooty spares rashid market patpargang road delhi 51,28.6480220886905,77.2793126106262,Charging,1,40,E-Wallet/Card/UPI
Revos,ekta bike  scooty spares rashid market patpargang road delhi 51,28.647777875754,77.2792747244238,Charging,1,40,E-Wallet/Card/UPI
Revos,Shop no12 new govind pura bhagat singh road,28.6486691031071,77.2814194858074,Charging,1,50,E-Wallet/Card/UPI
Revos,Shop no12 new govind pura bhagat singh road,28.6487100011102,77.2812240198254,Charging,1,30,E-Wallet/Card/UPI
Revos,6 /154 Geeta Colony Delhi 31,28.6542331446229,77.2740987315774,Charging,1,15,E-Wallet/Card/UPI
Revos,6/154 Geeta Colony,28.6541328173675,77.2741476818919,Charging,1,15,E-Wallet/Card/UPI
BSES,"NDMC Parking, Khan Market, New Delhi, 110003",28.600324,77.226883,Charging,1,9.5,Payment Gateway/e-Wallet
BSES,"NDMC Parking, Khan Market, New Delhi, 110003",28.600324,77.226883,Charging,1,9.5,Payment Gateway/e-Wallet
BSES,"NDMC Parking, Khan Market, New Delhi, 110003",28.600324,77.226883,Charging,1,9.5,Payment Gateway/e-Wallet
BSES,"NDMC Parking, Khan Market, New Delhi, 110003",28.600324,77.226883,Charging,1,9.5,Payment Gateway/e-Wallet
BSES,"NDMC Parking, Khan Market, New Delhi, 110003",28.600324,77.226883,Charging,1,9.5,Payment Gateway/e-Wallet
BSES,"NDMC Parking, Khan Market, New Delhi, 110003",28.600324,77.226883,Charging,1,9.5,Payment Gateway/e-Wallet
BSES,"NDMC Parking, Khan Market, New Delhi, 110003",28.600324,77.226883,Charging,1,9.5,Payment Gateway/e-Wallet
BSES,"NDMC Parking, Khan Market, New Delhi, 110003",28.600324,77.226883,Charging,1,9.5,Payment Gateway/e-Wallet
PlugNgo,"NDMC Parking, Khan Market, New Delhi, 110003",28.600324,77.226883,Charging,1,9.5,Payment Gateway/e-Wallet
PlugNgo,"NDMC Parking, Khan Market, New Delhi, 110003",28.600324,77.226883,Charging,1,9.5,Payment Gateway/e-Wallet
Kalindi E-Rickshaw Battery Smart,"NDMC Parking, Khan Market, New Delhi, 110003",28.600324,77.226883,Charging,1,9.5,Payment Gateway/e-Wallet
JMD vehicles Battery Smart,"NDMC Parking, Khan Market, New Delhi, 110003",28.600324,77.226883,Charging,1,9.5,Payment Gateway/e-Wallet
Ambika Enterprises Battery Smart,"NDMC Parking, Khan Market, New Delhi, 110003",28.600324,77.226883,Charging,1,9.5,Payment Gateway/e-Wallet
Das Motors Battery Smart,"NDMC Parking, Khan Market, New Delhi, 110003",28.600324,77.226883,Charging,1,9.5,Payment Gateway/e-Wallet
Kalindi e rickshaw Battery Smart,"NDMC Parking, Khan Market, New Delhi, 110003",28.600324,77.226883,Charging,1,9.5,Payment Gateway/e-Wallet
R K Enterprises Battery Smart,"NDMC Parking, Khan Market, New Delhi, 110003",28.600324,77.226883,Charging,1,9.5,Payment Gateway/e-Wallet
B.G Hub Battery Smart,"NDMC Parking, Khan Market, New Delhi, 110003",28.600324,77.226883,Charging,1,9.5,Payment Gateway/e-Wallet
Malik and Company Battery Smart,"NDMC Parking, Khan Market, New Delhi, 110003",28.600324,77.226883,Charging,1,9.5,Payment Gateway/e-Wallet
R.k Parking Battery Smart,"NDMC Parking, Khan Market, New Delhi, 110003",28.600324,77.226883,Charging,1,9.5,Payment Gateway/e-Wallet
Bineet Parking Battery Smart,"NDMC Parking, Khan Market, New Delhi, 110003",28.600324,77.226883,Charging,1,9.5,Payment Gateway/e-Wallet
Tabassum Parking Battery Smart,"NDMC Parking, Khan Market, New Delhi, 110003",28.600324,77.226883,Charging,1,9.5,Payment Gateway/e-Wallet
Ashu parking Battery Smart,"NDMC Parking, Khan Market, New Delhi, 110003",28.600324,77.226883,Charging,1,9.5,Payment Gateway/e-Wallet
Malik Parking Battery Smart,"NDMC Parking, Khan Market, New Delhi, 110003",28.600324,77.226883,Charging,1,9.5,Payment Gateway/e-Wallet
Shahid E-Rickshaw Parking Battery Smart,"NDMC Parking, Khan Market, New Delhi, 110003",28.600324,77.226883,Charging,1,9.5,Payment Gateway/e-Wallet
Altaf Parking Battery Smart,"NDMC Parking, Khan Market, New Delhi, 110003",28.600324,77.226883,Charging,1,9.5,Payment Gateway/e-Wallet
M.A. Batteries  Battery Smart,"NDMC Parking, Khan Market, New Delhi, 110003",28.600324,77.226883,Charging,1,9.5,Payment Gateway/e-Wallet
Shri Sai E Rickshaw Battery Smart,"NDMC Parking, Khan Market, New Delhi, 110003",28.600324,77.226883,Charging,1,9.5,Payment Gateway/e-Wallet
Yogesh Parking Battery Smart,"NDMC Parking, Khan Market, New Delhi, 110003",28.600324,77.226883,Charging,1,9.5,Payment Gateway/e-Wallet
Shri Balaji E Rickshaw Battery Smart,"NDMC Parking, Khan Market, New Delhi, 110003",28.600324,77.226883,Charging,1,9.5,Payment Gateway/e-Wallet
Satya Charging Point Battery Smart,"NDMC Parking, Khan Market, New Delhi, 110003",28.600324,77.226883,Charging,1,9.5,Payment Gateway/e-Wallet
Sabri Batteries Charging Point Battery Smart,"NDMC Parking, Khan Market, New Delhi, 110003",28.600324,77.226883,Charging,1,9.5,Payment Gateway/e-Wallet
Sanjay Kumar Charging Point Battery Smart,"NDMC Parking, Khan Market, New Delhi, 110003",28.600324,77.226883,Charging,1,9.5,Payment Gateway/e-Wallet
Gaurav Charging Point Battery Smart,"NDMC Parking, Khan Market, New Delhi, 110003",28.600324,77.226883,Charging,1,9.5,Payment Gateway/e-Wallet
Rakesh Electrical Battery Smart,"NDMC Parking, Khan Market, New Delhi, 110003",28.600324,77.226883,Charging,1,9.5,Payment Gateway/e-Wallet
Mahak Enterprises Battery Smart,"NDMC Parking, Khan Market, New Delhi, 110003",28.600324,77.226883,Charging,1,9.5,Payment Gateway/e-Wallet
Ma Laxmi Battery House Battery Smart,"NDMC Parking, Khan Market, New Delhi, 110003",28.600324,77.226883,Charging,1,9.5,Payment Gateway/e-Wallet
Baldeva Charging Point Battery Smart,"NDMC Parking, Khan Market, New Delhi, 110003",28.600324,77.226883,Charging,1,9.5,Payment Gateway/e-Wallet
Kishore Parking Battery Smart,"NDMC Parking, Khan Market, New Delhi, 110003",28.600324,77.226883,Charging,1,9.5,Payment Gateway/e-Wallet
Smart E - Shahdara Battery Smart,"NDMC Parking, Khan Market, New Delhi, 110003",28.600324,77.226883,Charging,1,9.5,Payment Gateway/e-Wallet
Smart E- Dilshad Garden Battery Smart,"NDMC Parking, Khan Market, New Delhi, 110003",28.600324,77.226883,Charging,1,9.5,Payment Gateway/e-Wallet
Nabbu Parking Battery Smart,"NDMC Parking, Khan Market, New Delhi, 110003",28.600324,77.226883,Charging,1,9.5,Payment Gateway/e-Wallet
Ali Parking Battery Smart,"NDMC Parking, Khan Market, New Delhi, 110003",28.600324,77.226883,Charging,1,9.5,Payment Gateway/e-Wallet
Anand Enterprises Battery Smart,"NDMC Parking, Khan Market, New Delhi, 110003",28.600324,77.226883,Charging,1,9.5,Payment Gateway/e-Wallet
New Micro Power Battery Smart,"NDMC Parking, Khan Market, New Delhi, 110003",28.600324,77.226883,Charging,1,9.5,Payment Gateway/e-Wallet
Shri Balaji E- Rickshaw parking Battery Smart,"NDMC Parking, Khan Market, New Delhi, 110003",28.600324,77.226883,Charging,1,9.5,Payment Gateway/e-Wallet
Jai sai naath enterprises e rickshaw repairs Battery Smart,"NDMC Parking, Khan Market, New Delhi, 110003",28.600324,77.226883,Charging,1,9.5,Payment Gateway/e-Wallet
Choudhary E Rickshaw Parking Battery Smart,"NDMC Parking, Khan Market, New Delhi, 110003",28.600324,77.226883,Charging,1,9.5,Payment Gateway/e-Wallet
Prem Giri  Enterprises Battery Smart,"NDMC Parking, Khan Market, New Delhi, 110003",28.600324,77.226883,Charging,1,9.5,Payment Gateway/e-Wallet
Mahesh E Rickshaw parking Battery Smart,"NDMC Parking, Khan Market, New Delhi, 110003",28.600324,77.226883,Charging,1,9.5,Payment Gateway/e-Wallet
Jatinder E Rickshaw Parking Battery Smart,"NDMC Parking, Khan Market, New Delhi, 110003",28.600324,77.226883,Charging,1,9.5,Payment Gateway/e-Wallet
Rohit Chaudhary E Rickshaw Parking Battery Smart,"NDMC Parking, Khan Market, New Delhi, 110003",28.600324,77.226883,Charging,1,9.5,Payment Gateway/e-Wallet
S N Rickshaw Service Battery Smart,"NDMC Parking, Khan Market, New Delhi, 110003",28.600324,77.226883,Charging,1,9.5,Payment Gateway/e-Wallet
Ananya Trading Company Battery Smart,"NDMC Parking, Khan Market, New Delhi, 110003",28.600324,77.226883,Charging,1,9.5,Payment Gateway/e-Wallet
Car Today  Battery Smart,"NDMC Parking, Khan Market, New Delhi, 110003",28.600324,77.226883,Charging,1,9.5,Payment Gateway/e-Wallet
Pal &amp; Sons Charging Point Battery Smart,"NDMC Parking, Khan Market, New Delhi, 110003",28.600324,77.226883,Charging,1,9.5,Payment Gateway/e-Wallet
Echargeup,"A-2/66, GF,New Kondli,Delhi",,,,150,,Cash/E Wallet
Echargeup,"A-8A, East Nathu Colony Chowk 100 Ft. Road,Pillar No.07,Sahadara,Delhi",,,,45,,Cash/E Wallet
Echargeup,"4/2407, Main Road, Opp. Gali No. 13 , Bihari Colony,Shahdara,Delhi",,,,120,,Cash/E Wallet
Echargeup,"E-7, Janta Majdoor Colony",,,,30,,Cash/E Wallet
Echargeup,D-51 North Ghonda Yamuna Vihar Road,,,,30,,Cash/E Wallet
Echargeup,"A-1/119, Gali no - 4, Harsh Vihar",,,,30,,Cash/E Wallet
Echargeup,"Shop No13 D.D.A Market Near Gagan Cinema , Nand Nagari",,,,30,,Cash/E Wallet
Echargeup,S/0 MR.YUSUF ALI E-49/G-2 JANTA MAZDOOR COLONY Welcome Seelampur,,,,30,,Cash/E Wallet
Echargeup,"Mayur Vihar Phase-3 ,Delhi",,,,30,,Cash/E Wallet
Echargeup,"E-49/H-73,Janta Mazdoor Colony ,Delhi",,,,30,,Cash/E Wallet
Echargeup,"215 shastri park E-block near kundan petrol pump, Delhi -110053",,,,20,,Cash/E Wallet
Echargeup,"H. No.-239, Double Sotrey,Welcome Seelampur Phase-3",,,,20,,Cash/E Wallet
Echargeup,"House No-8, Village Gharoli, Nearby Prithvi Raj Modern School, East Delhi",,,,20,,Cash/E Wallet
Echargeup,"A-52, Street No-5, KH-800,/697, East Nathu Colony, Delhi",,,,10,,Cash/E Wallet
Echargeup,"Shop No-18/160, Trilokpuri, New Delhi",,,,10,,Cash/E Wallet
Massive Mobility,M block Market Gearter Kailash 1,28.550284,77.235053,Charging,1,15,Cash/E-Wallet
Massive Mobility,"237, New Seelampur Shahdara",28.672540,77.273030,Charging,1,15,Cash/E-Wallet
Massive Mobility,"Opp. Karbala, Mochi park, mayur Vihar 1, Pocket 2, Kotla Village",28.609597,77.300671,Charging,1,15,Cash/E-Wallet
Massive Mobility,"RZG-45, 50 ft road, Nihal Vihar, Nangloi",28.667832,77.071777,Charging,1,15,Cash/E-Wallet
Massive Mobility,"RZA 182, Nihal Vihar Nangloi",28.665507,77.070628,Charging,1,15,Cash/E-Wallet
Massive Mobility,"1/4511, gali no 8, mandoli marg, Ram nagar extn, Shahdara",28.708607,77.320805,Charging,5,15,Cash/E-Wallet
Massive Mobility,"RZ-36, Najafgarh, Phase 2, Sai Baba Enclave Najafgarh",28.668839,77.077278,Charging,1,15,Cash/E-Wallet
Massive Mobility,"C-8, jagatpuri Extn Jama Masjid",28.698945,77.303944,Charging,1,15,Cash/E-Wallet
Massive Mobility,"BSES Bhawan, Near Kalkaji Metro Station Nehru Place",28.550381,77.254484,Charging,1,15,Cash/E-Wallet
Revos,"Nangloi, Delhi, 110041",28.68121092427,77.0757252350449,Charging,1,10,E-Wallet/Card/UPI
Revos,"Nangloi, Delhi, 110041",28.6812547509647,77.0758177712559,Charging,1,10,E-Wallet/Card/UPI
Revos,"Pocket 1, Matiala Extension, Matiala, Delhi, 110078",28.6087591786963,77.0494258403778,Charging,1,10,E-Wallet/Card/UPI
Revos,"Pocket 1, Matiala Extension, Matiala, Delhi, 110078",28.6086546871661,77.0494154468178,Charging,1,10,E-Wallet/Card/UPI
Revos,"Pocket 1, Matiala Extension, Matiala, Delhi, 110078",28.6087085518271,77.0494908839464,Charging,1,10,E-Wallet/Card/UPI
Revos,"Matiala, Delhi, 110078",28.6086865,77.0494577,Charging,1,5,E-Wallet/Card/UPI
Revos,New Delhi,28.6808738708496,77.0882415771484,Charging,1,,E-Wallet/Card/UPI
Revos,"Matiala, Delhi, 110078",28.6086865,77.0494577,Charging,1,5,E-Wallet/Card/UPI
Revos,"Matiala, Delhi, 110078",28.6086865,77.0494577,Charging,1,5,E-Wallet/Card/UPI
Revos,"Matiala, Delhi, 110078",28.6086865,77.0494577,Charging,1,5,E-Wallet/Card/UPI
Revos,"Matiala, Delhi, 110078",28.6086865,77.0494577,Charging,1,5,E-Wallet/Card/UPI
Revos,"Matiala, Delhi, 110078",28.6086865,77.0494577,Charging,1,5,E-Wallet/Card/UPI
Revos,"Matiala, Delhi, 110078",28.6086865,77.0494577,Charging,1,5,E-Wallet/Card/UPI
Revos,"Garud Automobiles  pillar no 748, near Nawada metro station",28.6199968567493,77.0406369119882,Charging,1,25,E-Wallet/Card/UPI
Revos,"Garud Automobiles  pillar no 748, near nawada metro station",28.6202114090299,77.0406868681311,Charging,1,25,E-Wallet/Card/UPI
Revos,k 27 Gali no. 10 pipal wala road Mohan Garden Uttam Nagar New Delhi 110059,28.6270999908447,77.0381393432617,Charging,1,20,E-Wallet/Card/UPI
Revos,"T-241, Param puri Uttam Nagar New Delhi 110059",28.6173338997748,77.0560777187347,Charging,1,,E-Wallet/Card/UPI
Revos,"w_49 pvc market , pashim vihar",28.6730044201805,77.0794320479035,Charging,1,40,E-Wallet/Card/UPI
Revos,wz-1 basai road  pankha market opp metro piller no. 322 basai road,28.6564197540283,77.1389083862304,Charging,1,20,E-Wallet/Card/UPI
Revos,19/5 laxmi vihar jain road,28.6242198944091,77.0312881469726,Charging,1,25,E-Wallet/Card/UPI
Revos,"Dwarka More,opp metro pillar no -792 near Tarak Hospital, New Delhi-110059",28.6192869769428,77.0293173193931,Charging,1,50,E-Wallet/Card/UPI
Revos,"D-39, Gali No.-5, New Shyam Nagar, Tilak Nagar, West Delhi, Delhi-110018",28.644229888916,77.1065216064453,Charging,1,25,E-Wallet/Card/UPI
Revos,NA,28.6069831848144,77.0743560791015,Charging,1,,E-Wallet/Card/UPI
Revos,"house no 47, gali no 9, G-2, sai enclave mohan garden uttam nagar new delhi",28.6420269012451,77.0365982055664,Charging,1,10,E-Wallet/Card/UPI
Revos,Plot no182 chand nagar,28.6482554144951,77.0963651686906,Charging,1,1,E-Wallet/Card/UPI
Revos,"plot no 98, gali no 1, niyadar enclave, near sunday market road, Vikas nagar, uttam nagar new delhi- 110059",28.6447696685791,77.0369796752929,Charging,1,,E-Wallet/Card/UPI
Revos,Prem Nagar 1 Kirari Suleman Nagar 1,28.691244699769,77.0605637133121,Charging,1,,E-Wallet/Card/UPI
Revos,"Shop no.12 DDA market jg-2 block , Vikas Puri , new Delhi -110018",28.6434688568115,77.0810928344726,Charging,1,40,E-Wallet/Card/UPI
Revos,n block gurdwara dera dukh niwaran raghubir nagar near bus stand 912 new delhi 27,28.659324645996,77.1118774414062,Charging,1,30,E-Wallet/Card/UPI
Revos,"A-1, ADHYAPAK NAGAR OPPOSITE BANIYA KI DUKAAN NAJAFGARH ROAD NANGLOI DELHI-41",28.6690940856933,77.0565643310546,Charging,1,40,E-Wallet/Card/UPI
Revos,A-2/262 Janak Puri New Delhi 110058,28.6194992065429,77.0772094726562,Charging,1,50,E-Wallet/Card/UPI
Revos,S44. meenakshi garden  Subhash Nagar meto station Delhi,28.6399307250976,77.1055908203125,Charging,1,40,E-Wallet/Card/UPI
Revos,NA,28.6144130457047,77.083194181323,Charging,1,,E-Wallet/Card/UPI
Revos,305 POCKET 1 PASCHIM PURI NEW DELHI 110063 SHOP NO 2,28.6651402924267,77.1139420196414,Charging,1,20,E-Wallet/Card/UPI
Revos,"A-13, main najafgarh road, (near nawada metro station) pillar number 737, uttam nagar, N. Delhi-59",28.6199585963514,77.0435947179794,Charging,1,50,E-Wallet/Card/UPI
Revos,F299 Sahyog Vihar Matiala Near Shanti Garden dheli,28.6090055428224,77.0501406490802,Charging,1,40,E-Wallet/Card/UPI
Revos,F 299 Sahyog Vihar Matiala Near Shanti Garden,28.6092389553741,77.0497899502515,Charging,1,40,E-Wallet/Card/UPI
Revos,old mahabir nagar opp metro pillar no 553 near East Janakpuri metro station,28.6329021762869,77.0876017212867,Charging,1,40,E-Wallet/Card/UPI
Revos,s 57 old mahabir nagar opp metro pillar no 553 near Janakpuri metro station,28.6329136529925,77.0864386484026,Charging,1,40,E-Wallet/Card/UPI
Revos,s 57 old mahabir nagar opp metro pillar no 553 near Janakpuri metro station,28.6331793825177,77.0881800726056,Charging,1,40,E-Wallet/Card/UPI
Revos,"Matiala, Delhi, 110078",28.6086865,77.0494577,Charging,1,5,E-Wallet/Card/UPI
Revos,SHOP NO SH33473 new moti nagar near milan cinama Delhi 15,28.6630883384262,77.1448346972465,Charging,1,40,E-Wallet/Card/UPI
Revos,SHOP NO SH33473 NEW MOTI NAGAR NEAR MILAN CINEMA NEW DELHI 110015,28.6630356784328,77.1447994932532,Charging,1,40,E-Wallet/Card/UPI
Revos,"B-37Mohit Nagar, Shiv park main kakrola Road Delhi 110075",28.6093093028132,77.0343129336834,Charging,1,50,E-Wallet/Card/UPI
Revos,B 37 mohit Nagar Shiv park main kakrola roab Delhi 110075,28.6093022386373,77.0342995226383,Charging,1,50,E-Wallet/Card/UPI
Revos,House C200 Rishal Garden Nangloi,28.6591081686055,77.0502838119864,Charging,1,30,E-Wallet/Card/UPI
Revos,"C-9/12, Som Bazar, Jeevan Park, (back side of pradhanmantri Jan Ausdi Kendra) Pankha Road Uttam Nagar, New Delhi -110059",28.619262254674,77.0726748928427,Charging,1,13,E-Wallet/Card/UPI
Revos,"House No. 71B, Block A, Krishan Vihar, Opp. Budh Vihar",28.7047008730012,77.0850871503353,Charging,1,10,E-Wallet/Card/UPI
EFILL,"Police Station, B-80, Maya Puri Industrial Area Phase-1, Behind Maya Puri, New Delhi- 110064",28.6260376,77.1221717,Charging,1,15,"Debit Card, Credit Card, BHIM/UPI, NetBanking, Wallet"
Smart E,"NDMC Parking, Khan Market, New Delhi, 110003",28.600324,77.226883,Charging,1,9.5,Payment Gateway/e-Wallet
TPDDL,"NDMC Parking, Khan Market, New Delhi, 110003",28.600324,77.226883,Charging,1,9.5,Payment Gateway/e-Wallet
Osho E Rickshaw Charging Point Battery Smart,"NDMC Parking, Khan Market, New Delhi, 110003",28.600324,77.226883,Charging,1,9.5,Payment Gateway/e-Wallet
Paramount Autoworld Battery Smart,"NDMC Parking, Khan Market, New Delhi, 110003",28.600324,77.226883,Charging,1,9.5,Payment Gateway/e-Wallet
Kumkum Electric India Pvt Ltd Battery Smart,"NDMC Parking, Khan Market, New Delhi, 110003",28.600324,77.226883,Charging,1,9.5,Payment Gateway/e-Wallet
Vivaan Enterprises Battery Smart,"NDMC Parking, Khan Market, New Delhi, 110003",28.600324,77.226883,Charging,1,9.5,Payment Gateway/e-Wallet
Sharma Travel Agents Battery Smart,"NDMC Parking, Khan Market, New Delhi, 110003",28.600324,77.226883,Charging,1,9.5,Payment Gateway/e-Wallet
Ashirwad Inverter &amp; Battery Battery Smart,"NDMC Parking, Khan Market, New Delhi, 110003",28.600324,77.226883,Charging,1,9.5,Payment Gateway/e-Wallet
Inder Jha Battery Smart,"NDMC Parking, Khan Market, New Delhi, 110003",28.600324,77.226883,Charging,1,9.5,Payment Gateway/e-Wallet
Jai Mata Battery Battery Smart,"NDMC Parking, Khan Market, New Delhi, 110003",28.600324,77.226883,Charging,1,9.5,Payment Gateway/e-Wallet
GHS Electronics Battery Smart,"NDMC Parking, Khan Market, New Delhi, 110003",28.600324,77.226883,Charging,1,9.5,Payment Gateway/e-Wallet
Ambika E Rickshaw Charging Battery Smart,"NDMC Parking, Khan Market, New Delhi, 110003",28.600324,77.226883,Charging,1,9.5,Payment Gateway/e-Wallet
WeVolt Technologies LLP FO Battery Smart,"NDMC Parking, Khan Market, New Delhi, 110003",28.600324,77.226883,Charging,1,9.5,Payment Gateway/e-Wallet
Mahadev E Rickshaw Trading Battery Smart,"NDMC Parking, Khan Market, New Delhi, 110003",28.600324,77.226883,Charging,1,9.5,Payment Gateway/e-Wallet
Future Sounds Battery Smart,"NDMC Parking, Khan Market, New Delhi, 110003",28.600324,77.226883,Charging,1,9.5,Payment Gateway/e-Wallet
Ali Jan E Rickshaw Parking Battery Smart,"NDMC Parking, Khan Market, New Delhi, 110003",28.600324,77.226883,Charging,1,9.5,Payment Gateway/e-Wallet
Khanna Charging Battery Smart,"NDMC Parking, Khan Market, New Delhi, 110003",28.600324,77.226883,Charging,1,9.5,Payment Gateway/e-Wallet
Shree balaji - E rickshaw charging and parking Battery Smart,"NDMC Parking, Khan Market, New Delhi, 110003",28.600324,77.226883,Charging,1,9.5,Payment Gateway/e-Wallet
Sahiba Motors Battery Smart,"NDMC Parking, Khan Market, New Delhi, 110003",28.600324,77.226883,Charging,1,9.5,Payment Gateway/e-Wallet
Target One Innovation Pvt. Ltd Battery Smart,"NDMC Parking, Khan Market, New Delhi, 110003",28.600324,77.226883,Charging,1,9.5,Payment Gateway/e-Wallet
Virat Parking Battery Smart,"NDMC Parking, Khan Market, New Delhi, 110003",28.600324,77.226883,Charging,1,9.5,Payment Gateway/e-Wallet
Dwarka Field Office Battery Smart,"NDMC Parking, Khan Market, New Delhi, 110003",28.600324,77.226883,Charging,1,9.5,Payment Gateway/e-Wallet
Sai Ram Automobiles Battery Smart,"NDMC Parking, Khan Market, New Delhi, 110003",28.600324,77.226883,Charging,1,9.5,Payment Gateway/e-Wallet
Satya Enterprises Battery Smart,"NDMC Parking, Khan Market, New Delhi, 110003",28.600324,77.226883,Charging,1,9.5,Payment Gateway/e-Wallet
Vivek E rickshaw parking Battery Smart,"NDMC Parking, Khan Market, New Delhi, 110003",28.600324,77.226883,Charging,1,9.5,Payment Gateway/e-Wallet
Shiva E Rickshaw Charging Point Battery Smart,"NDMC Parking, Khan Market, New Delhi, 110003",28.600324,77.226883,Charging,1,9.5,Payment Gateway/e-Wallet
Harneet E-Rickshaw parking Battery Smart,"NDMC Parking, Khan Market, New Delhi, 110003",28.600324,77.226883,Charging,1,9.5,Payment Gateway/e-Wallet
Vijay Rickshaw Charging Point Battery Smart,"NDMC Parking, Khan Market, New Delhi, 110003",28.600324,77.226883,Charging,1,9.5,Payment Gateway/e-Wallet
Sanjay Charging point Battery Smart,"NDMC Parking, Khan Market, New Delhi, 110003",28.600324,77.226883,Charging,1,9.5,Payment Gateway/e-Wallet
Sood Battery Point Battery Smart,"NDMC Parking, Khan Market, New Delhi, 110003",28.600324,77.226883,Charging,1,9.5,Payment Gateway/e-Wallet
Joginder E- Rickshaw parking Battery Smart,"NDMC Parking, Khan Market, New Delhi, 110003",28.600324,77.226883,Charging,1,9.5,Payment Gateway/e-Wallet
Gaurav Battery Battery Smart,"NDMC Parking, Khan Market, New Delhi, 110003",28.600324,77.226883,Charging,1,9.5,Payment Gateway/e-Wallet
B Y Parking Battery Smart,"NDMC Parking, Khan Market, New Delhi, 110003",28.600324,77.226883,Charging,1,9.5,Payment Gateway/e-Wallet
DK E Rickshaw parking Battery Smart,"NDMC Parking, Khan Market, New Delhi, 110003",28.600324,77.226883,Charging,1,9.5,Payment Gateway/e-Wallet
Smart E Uttam Nagar Battery Smart,"NDMC Parking, Khan Market, New Delhi, 110003",28.600324,77.226883,Charging,1,9.5,Payment Gateway/e-Wallet
Shri Shayam Documents  Battery Smart,"NDMC Parking, Khan Market, New Delhi, 110003",28.600324,77.226883,Charging,1,9.5,Payment Gateway/e-Wallet
Jatin Traders Battery Smart,"NDMC Parking, Khan Market, New Delhi, 110003",28.600324,77.226883,Charging,1,9.5,Payment Gateway/e-Wallet
Om battery and inverter Battery Smart,"NDMC Parking, Khan Market, New Delhi, 110003",28.600324,77.226883,Charging,1,9.5,Payment Gateway/e-Wallet
Hare Krishna Enterprises Pvt Ltd Battery Smart,"NDMC Parking, Khan Market, New Delhi, 110003",28.600324,77.226883,Charging,1,9.5,Payment Gateway/e-Wallet
HK Charging Station Battery Smart,"NDMC Parking, Khan Market, New Delhi, 110003",28.600324,77.226883,Charging,1,9.5,Payment Gateway/e-Wallet
Satguru Batteries Battery Smart,"NDMC Parking, Khan Market, New Delhi, 110003",28.600324,77.226883,Charging,1,9.5,Payment Gateway/e-Wallet
Satija Batteries Battery Smart,"NDMC Parking, Khan Market, New Delhi, 110003",28.600324,77.226883,Charging,1,9.5,Payment Gateway/e-Wallet
Nitin Parking Battery Smart,"NDMC Parking, Khan Market, New Delhi, 110003",28.600324,77.226883,Charging,1,9.5,Payment Gateway/e-Wallet
Balaji parking Battery Smart,"NDMC Parking, Khan Market, New Delhi, 110003",28.600324,77.226883,Charging,1,9.5,Payment Gateway/e-Wallet
REF CON SERVICES Battery Smart,"NDMC Parking, Khan Market, New Delhi, 110003",28.600324,77.226883,Charging,1,9.5,Payment Gateway/e-Wallet
Shiva Kushwaha E Rickshaw parking Battery Smart,"NDMC Parking, Khan Market, New Delhi, 110003",28.600324,77.226883,Charging,1,9.5,Payment Gateway/e-Wallet
HS Parking Battery Smart,"NDMC Parking, Khan Market, New Delhi, 110003",28.600324,77.226883,Charging,1,9.5,Payment Gateway/e-Wallet
Tarun Parking Battery Smart,"NDMC Parking, Khan Market, New Delhi, 110003",28.600324,77.226883,Charging,1,9.5,Payment Gateway/e-Wallet
Maan Energy Station Battery Smart,"NDMC Parking, Khan Market, New Delhi, 110003",28.600324,77.226883,Charging,1,9.5,Payment Gateway/e-Wallet
Hybrid fleet Battery Smart,"NDMC Parking, Khan Market, New Delhi, 110003",28.600324,77.226883,Charging,1,9.5,Payment Gateway/e-Wallet
ML Parking  Battery Smart,"NDMC Parking, Khan Market, New Delhi, 110003",28.600324,77.226883,Charging,1,9.5,Payment Gateway/e-Wallet
Echargeup,"Plot No.7, Zakhira Chowk,Near Ram Dharam Katta,Delhi",,,,75,,Cash/E Wallet
Echargeup,"RZG 75 , 50 FOOT ROAD ( near Jay Veer Nan, Bharat Hospital ),Nihal Vihar Nangloi",,,,30,,Cash/E Wallet
Echargeup,"B-9 Tihar Village ,Manak Vihar, Ext-Tilak Nagar ,West Delhi",,,,30,,Cash/E Wallet
Echargeup,"Ground Floor, WZ 107/1-B, Gali No - 21, Sant Garh",,,,30,,Cash/E Wallet
Echargeup,"C-514, Madipur Colony ,Paschim Vihar , West Delhi",,,,30,,Cash/E Wallet
Echargeup,"Shop No C12, LSC Market ,Road No 33,Punjabi Bagh ,Near Paschim Petrol Pump",,,,30,,Cash/E Wallet
Echargeup,"K-5 Extn. Mohan Garden Vikrant Chowk ,OPP R.P Memorial School ,Uttam Nagar New Delhi",,,,30,,Cash/E Wallet
Echargeup,"523/24, Block WZ, Basai Darapur,Near Ramesh NagarMetro Station",,,,20,,Cash/E Wallet
Echargeup,280-B Street no-4 sri nager shakur basti Delhi - 110034,,,,20,,Cash/E Wallet
Echargeup,"A-3, Ranjeet Vihar, Pratap Shah Market, Near Sharma Hardware, New Delhi",,,,20,,Cash/E Wallet
Echargeup,"1/1 , Shop No.-1, Som Bazar Road, Ashok Nagar",,,,20,,Cash/E Wallet
Echargeup,"R-51A,J.J Colony Raghubir Nagar rajori Garden,Tagore Garden",,,,15,,Cash/E Wallet
Echargeup,"3/119, Subhash Nagar, West Delhi",,,,15,,Cash/E Wallet
Echargeup,"17/20, First Floor, Near Arjun Hospital,Subhash Nagar, West Delhi",,,,15,,Cash/E Wallet
Echargeup,"Plot No-1 A, KH No-4/3 Shiv Vihar, Pole No.-0596, Nangloi New Delhi",,,,15,,Cash/E Wallet
Echargeup,"A-22 Sewak Park, Main Drwarka Road, Near Dwarka More, Uttam Nagar Delhi-",,,,15,,Cash/E Wallet
Echargeup,"B-21-A, G/F Patel, Garden Uttam Nagar, New Delhi",,,,15,,Cash/E Wallet
Echargeup,"Plot No-5, Kh no-28/1, Old Palam Road, Sulahkul vihar, Kakrola",,,,15,,Cash/E Wallet
Echargeup,"Plot No-429,430, First Floor Kh-21/3, Kakrola Housing Complex, New Delhi",,,,10,,Cash/E Wallet
Massive Mobility,"A-1/1, Hardev Puri, 100 ft Road, Nathu Colony Chowk, Sahadara",28.689606,77.298775,Charging,1,15,Cash/E-Wallet
Massive Mobility,"Plot no. 1-A, Shiv vihar, Nangloi",28.661666,77.061585,Charging,10,15,Cash/E-Wallet
Massive Mobility,"9/17, Near Chajju Gate, east babarpur, Shahdara",28.688152,77.282319,Charging,5,15,Cash/E-Wallet
Massive Mobility,"E-473, New Ashok Nagar",28.597866,77.310739,Charging,1,15,Cash/E-Wallet
Massive Mobility,"House no. 1, Block A, Harsukh Nagar, Prem Nagar Kirari",28.688874,77.061662,Charging,5,15,Cash/E-Wallet
Massive Mobility,"WP-572, Wazirpur Village, Ashok Vihar",28.690235,77.174772,Charging,1,15,Cash/E-Wallet
Massive Mobility,"Block J, CR Park",28.537731,77.247888,Charging,1,15,Cash/E-Wallet
Massive Mobility,"B154, Block E New Ashok Nagar",28.592390,77.304336,Charging,2,15,Cash/E-Wallet
Massive Mobility,"Plot no. 984-E, 100ft Road, Babarpur Extn, Chhajjupur Shahdara",28.690569,77.280285,Charging,1,15,Cash/E-Wallet
Massive Mobility,"C-5, Opp. Metro pillar 111, Kanti Nagar",28.667820,77.281904,Charging,1,15,Cash/E-Wallet
Massive Mobility,"C-35, Kh.no 475-476 Wazirabad",28.703118,77.265863,Charging,1,15,Cash/E-Wallet
Massive Mobility,"D-31, Janta Flat, Near Machis Godam, Kondli Mayur Vihar Phase 3",28.611203,77.327790,Charging,1,15,Cash/E-Wallet
Massive Mobility,"Stall no. 27, Cycle Repairing Barakhamba Road",28.630737,77.223457,Charging,1,15,Cash/E-Wallet
Massive Mobility,Ashoka Enclave Pashchim Vihar,28.678849,77.091490,Charging,1,15,Cash/E-Wallet
Revos,Zypp Electric Mohan Estate Station,28.5289989990052,77.2924758866429,Charging,1,10,E-Wallet/Card/UPI
Revos,Zypp Electric Mohan Estate Station 2,28.52918958264,77.2925586998462,Charging,1,10,E-Wallet/Card/UPI
Revos,Zypp Electric Mohan Estate Station 3,28.5290260990176,77.2925496473908,Charging,1,10,E-Wallet/Card/UPI
Revos,"Pocket D, Okhla Phase I, Okhla Industrial Estate, New Delhi, Delhi 110020",28.5268056422924,77.2745211794972,Charging,1,10,E-Wallet/Card/UPI
Revos,"Pocket D, Okhla Phase I, Okhla Industrial Estate, New Delhi, Delhi 110020",28.5239084915866,77.2761030122637,Charging,1,10,E-Wallet/Card/UPI
Revos,"Sanjay Colony II, Sanjay Colony, Okhla Phase II, Okhla Industrial Estate, New Delhi, Delhi 110020",28.5413891637029,77.275659777224,Charging,1,10,E-Wallet/Card/UPI
Revos,"Sanjay Colony II, Sanjay Colony, Okhla Phase II, Okhla Industrial Estate, New Delhi, Delhi 110020",28.5413143528646,77.2757818177342,Charging,1,10,E-Wallet/Card/UPI
Revos,CSC E GOVERNANCE SERVICE INDIA LTD.,28.5508079528808,77.2690963745117,Charging,1,,E-Wallet/Card/UPI
Revos,Delhi,28.5624359954026,77.28738874197,Charging,1,,E-Wallet/Card/UPI
Revos,DELHI,28.5609188079834,77.2856140136718,Charging,1,,E-Wallet/Card/UPI
Revos,DELHI,28.5624309893803,77.2873062640428,Charging,1,,E-Wallet/Card/UPI
Revos,DELHI,28.5605373382568,77.2844772338867,Charging,1,,E-Wallet/Card/UPI
Revos,DELHI,28.5624197994473,77.2873086109757,Charging,1,,E-Wallet/Card/UPI
Revos,DELHI,28.5624197994473,77.2873086109757,Charging,1,,E-Wallet/Card/UPI
Revos,DELHI,28.5623950638018,77.2873904183507,Charging,1,,E-Wallet/Card/UPI
Revos,DELHI,28.5624754546285,77.287280447781,Charging,1,,E-Wallet/Card/UPI
Revos,DELHI,28.5625381469726,77.2873916625976,Charging,1,,E-Wallet/Card/UPI
Revos,DELHI,28.5624771118164,77.2873382568359,Charging,1,,E-Wallet/Card/UPI
Revos,DELHI,28.5624569029047,77.2873696312308,Charging,1,,E-Wallet/Card/UPI
Revos,DELHI,28.5623912811279,77.2873458862304,Charging,1,,E-Wallet/Card/UPI
Revos,DELHI,28.5623785733682,77.2872616723179,Charging,1,,E-Wallet/Card/UPI
Revos,DELHI,28.5623989105224,77.2873611450195,Charging,1,,E-Wallet/Card/UPI
Revos,DELHI,28.5624224496947,77.2873310744762,Charging,1,,E-Wallet/Card/UPI
Revos,DELHI,28.5624732971191,77.2873458862304,Charging,1,,E-Wallet/Card/UPI
Revos,DELHI,28.5624275207519,77.2873229980468,Charging,1,,E-Wallet/Card/UPI
Revos,DELHI,28.5624485015869,77.2873077392578,Charging,1,,E-Wallet/Card/UPI
Revos,DELHI,28.5624561309814,77.2873764038086,Charging,1,,E-Wallet/Card/UPI
Revos,DELHI,28.56245803833,77.287353515625,Charging,1,,E-Wallet/Card/UPI
Revos,DELHI,28.5624752044677,77.2873840332031,Charging,1,,E-Wallet/Card/UPI
Revos,DELHI,28.5624732971191,77.2873458862304,Charging,1,,E-Wallet/Card/UPI
Revos,DELHI,28.5624446868896,77.2873611450195,Charging,1,,E-Wallet/Card/UPI
Revos,DELHI,28.5624313354492,77.2874145507812,Charging,1,,E-Wallet/Card/UPI
Revos,DELHI,28.5624463019182,77.287256643176,Charging,1,,E-Wallet/Card/UPI
Revos,NA,28.521745665865,77.2929137572646,Charging,1,,E-Wallet/Card/UPI
Revos,77.292667267478,28.5289341149285,77.292667267478,Charging,1,5,E-Wallet/Card/UPI
Revos,"Sanjay Colony II, Sanjay Colony, Okhla Phase II, Okhla Industrial Estate, New Delhi, Delhi 110020",28.5413247,77.2755771,Charging,1,5,E-Wallet/Card/UPI
Revos,"Sanjay Colony II, Sanjay Colony, Okhla Phase II, Okhla Industrial Estate, New Delhi, Delhi 110020",28.5413247,77.2755771,Charging,1,5,E-Wallet/Card/UPI
Revos,"Sanjay Colony II, Sanjay Colony, Okhla Phase II, Okhla Industrial Estate, New Delhi, Delhi 110020",28.5413247,77.2755771,Charging,1,5,E-Wallet/Card/UPI
Revos,"Sanjay Colony II, Sanjay Colony, Okhla Phase II, Okhla Industrial Estate, New Delhi, Delhi 110020",28.5413247,77.2755771,Charging,1,5,E-Wallet/Card/UPI
Revos,"Pocket E Sarita Vihar, Sarita Vihar, New Delhi, Delhi 110076",28.5289341149285,77.292667267478,Charging,1,5,E-Wallet/Card/UPI
Revos,"Pocket E Sarita Vihar, Sarita Vihar, New Delhi, Delhi 110076",28.5289341149285,77.292667267478,Charging,1,5,E-Wallet/Card/UPI
Revos,Shakti Vihar.,28.50129,77.32115,Charging,1,25,E-Wallet/Card/UPI
Revos,"E -12, ground floor, Lajpat Nagar 1, New Delhi 110024",28.5733477,77.2372255,Charging,1,5,E-Wallet/Card/UPI
Revos,"E -12, ground floor, Lajpat Nagar 1, New Delhi 110024",28.5733477,77.2372255,Charging,1,5,E-Wallet/Card/UPI
Revos,"E -12, ground floor, Lajpat Nagar 1, New Delhi 110024",28.5733477,77.2372255,Charging,1,5,E-Wallet/Card/UPI
Revos,"E -12, ground floor, Lajpat Nagar 1, New Delhi 110024",28.5733477,77.2372255,Charging,1,5,E-Wallet/Card/UPI
Revos,"E -12, ground floor, Lajpat Nagar 1, New Delhi 110024",28.5733477,77.2372255,Charging,1,5,E-Wallet/Card/UPI
Revos,"E -12, ground floor, Lajpat Nagar 1, New Delhi 110024",28.5733477,77.2372255,Charging,1,5,E-Wallet/Card/UPI
Revos,H-6/9 malviya nagar new delhi-110017,28.5304908752441,77.2098388671875,Charging,1,10,E-Wallet/Card/UPI
Revos,neenja,28.5621261596679,77.2595901489257,Charging,1,100,E-Wallet/Card/UPI
Revos,A-7 Jawahar Park,28.5077877044677,77.2318725585937,Charging,1,,E-Wallet/Card/UPI
Revos,"D-272, Parking, Sarvodaya Enclave, New Delhi - 110017",28.5373306274414,77.2036514282226,Charging,1,100,E-Wallet/Card/UPI
Revos,H.No.199 Badi Chaupal Wali Gali Badarpur New Delhi 110044,28.5029182434082,77.3020324707031,Charging,1,10,E-Wallet/Card/UPI
Revos,"Sanjay Colony II, Sanjay Colony, Okhla Phase II, Okhla Industrial Estate, New Delhi, Delhi 110020",28.5413246154785,77.2755737304687,Charging,1,5,E-Wallet/Card/UPI
Revos,Rz 739/22 TUGLKABAD EXTENSION,28.5215771627335,77.2574103623628,Charging,1,,E-Wallet/Card/UPI
Revos,w4 opposite kalkaji depot govindpuri,28.5384134774595,77.2666841000318,Charging,1,45,E-Wallet/Card/UPI
Revos,w4 opposite kalkaji depot govindpuri,28.5383416099008,77.2666670009494,Charging,1,45,E-Wallet/Card/UPI
Revos,"TA-327, TUGHLAKABAD EXTENSION, OKHLA MAIN ROAD. NEW DELHI 110019.",28.5258096912802,77.2603208944201,Charging,1,200,E-Wallet/Card/UPI
Revos,"delhi fruit and vegetable store
saket k block gate no 3",28.521915435791,77.2112197875976,Charging,1,40,E-Wallet/Card/UPI
Revos,s7 khirki,28.5308700617521,77.2179872542619,Charging,1,,E-Wallet/Card/UPI
Revos,badarpur,28.4994069317748,77.3006871342659,Charging,1,,E-Wallet/Card/UPI
Revos,"C-30/E Railway Colony
Lajpat Nagar - I
New Delhi - 110024",28.5757656097412,77.2445526123046,Charging,1,,E-Wallet/Card/UPI
Revos,"c9, panchsheel vihar",28.5342963298393,77.2193025425076,Charging,1,30,E-Wallet/Card/UPI
Revos,"161 joga bai ,
Main road,
opp. Go mobile
zakir nagar
new Delhi",28.56640098472,77.2826137393713,Charging,1,50,E-Wallet/Card/UPI
Revos,A 142 Gali no.14 Harsh Vihar Hari Nagar Part-III Badarpur New Delhi-110044,28.4989604949951,77.3273849487304,Charging,1,13,E-Wallet/Card/UPI
Revos,"Sanjay Colony II, Sanjay Colony, Okhla Phase II, Okhla Industrial Estate, New Delhi, Delhi 110020",28.5413247,77.2755771,Charging,1,5,E-Wallet/Card/UPI
Revos,"national Aquatech solution G-2nd gali no.18 Near national building material suppliers tiranga chowk 
sangam vihar new delhi-110080",28.4995377554296,77.2478868439793,Charging,1,30,E-Wallet/Card/UPI
Revos,166c Pocket 12 Jasola vihar new Delhi 110025,28.5501248781672,77.2885149344801,Charging,1,,E-Wallet/Card/UPI
Revos,"C-139 , Savitri nagar ,New Delhi-17",28.5385704666691,77.2189079225063,Charging,1,,E-Wallet/Card/UPI
Revos,b 80 Dayanand colony Lajpat Nagar 4,28.5628128051757,77.2466735839843,Charging,1,50,E-Wallet/Card/UPI
Revos,rz_421 main road tughlakabad extension delhi,28.5235111029365,77.2618319839239,Charging,1,40,E-Wallet/Card/UPI
Revos,rz_421 main road tughlakabad extension delhi,28.5236504395277,77.262009344995,Charging,1,40,E-Wallet/Card/UPI
Revos,l-78 lajpat nagar 2 shop no.5 delhi,28.5692928444675,77.2465477511286,Charging,1,50,E-Wallet/Card/UPI
Revos,l-78 lajpat nagar 2 shop no.5 delhi,28.5696249865939,77.2468649223446,Charging,1,50,E-Wallet/Card/UPI
Revos,36/1Govind Puri  kalka ji,28.5374659409966,77.2669610381126,Charging,1,40,E-Wallet/Card/UPI
Revos,36/1Govind Puri kalka ji,28.5374497412006,77.2667028754949,Charging,1,40,E-Wallet/Card/UPI
Revos,38 c taimoor nagar nala road,28.5727420069127,77.2688845172524,Charging,1,50,E-Wallet/Card/UPI
Revos,38 c taimoor nagar nala road,28.5723645302431,77.2688613831996,Charging,1,50,E-Wallet/Card/UPI
Revos,65 bal mukand khand giri nagar kalka ji new delhi,28.53899695775,77.2656980529427,Charging,1,40,E-Wallet/Card/UPI
Revos,65 bal mukand khand giri nagar kalka ji new delhi,28.5390264114902,77.2656152397394,Charging,1,40,E-Wallet/Card/UPI
Revos,H 32 Kalkaji Behind Mc Donald,28.5401309208033,77.257616892457,Charging,1,40,E-Wallet/Card/UPI
Revos,H  32 Kalkaji Behind Mc Donald,28.5402116231632,77.2577107697725,Charging,1,40,E-Wallet/Card/UPI
Revos,77.292667267478,28.5289344787597,77.2926635742187,Charging,1,5,E-Wallet/Card/UPI
Revos,"Pocket E Sarita Vihar, Sarita Vihar, New Delhi, Delhi 110076",28.5289341149285,77.292667267478,Charging,1,5,E-Wallet/Card/UPI
Revos,rz421 main road Gali no.13 Tughlaqabad Extension,28.5236038958243,77.2619288787245,Charging,1,40,E-Wallet/Card/UPI
Revos,godown no 731 mb road Lal kuan,28.5047411053125,77.2780801355838,Charging,1,50,E-Wallet/Card/UPI
Revos,sh no 10mane market Nehru Nagar,28.5700039453459,77.2538396716117,Charging,1,80,E-Wallet/Card/UPI
Revos,sh no10 mane markit Nehru Nagar,28.5699789170322,77.2537994384765,Charging,1,80,E-Wallet/Card/UPI
Revos,B215 lagpat nagar delhi,28.5748522591004,77.2411182895302,Charging,1,40,E-Wallet/Card/UPI
Revos,stall no1 DSIDC shed Okhla phase I,28.5260995519955,77.2824507951736,Charging,1,40,E-Wallet/Card/UPI
Revos,B 215 Lajpat Nagar Delhi,28.5751340350714,77.2389688342809,Charging,1,40,E-Wallet/Card/UPI
Revos,151 Sarai jullena okhla road new delhi,28.560833467175,77.2711630538106,Charging,1,50,E-Wallet/Card/UPI
Revos,151 Sarai jullena okhla road new delhi,28.5608979574811,77.2712730243802,Charging,1,50,E-Wallet/Card/UPI
Revos,A 121 double story kalka ji new delhi,28.5437553972126,77.2505425661802,Charging,1,50,E-Wallet/Card/UPI
Revos,A 121 double story kalka ji new delhi,28.5437978086801,77.2505432367324,Charging,1,50,E-Wallet/Card/UPI
Revos,612 sunlight coloney 2 Hari nagar ashram,28.5769556970389,77.2588832303881,Charging,1,40,E-Wallet/Card/UPI
Revos,151 Sarai jullena okhla road new delhi,28.560880288908,77.2713243216276,Charging,1,50,E-Wallet/Card/UPI
Revos,E471 nav jevaan camp govindpuri Delhi,28.5310314805964,77.262051589787,Charging,1,40,E-Wallet/Card/UPI
Revos,128 3 kilokari near maharanibagh ashram,28.5821016406849,77.2640424594283,Charging,1,50,E-Wallet/Card/UPI
Revos,128 3 kilokari near maharanibagh ashram,28.5821016406849,77.2640424594283,Charging,1,50,E-Wallet/Card/UPI
Revos,shop no 1 apna bazar nehru nagar delhi,28.571403754731,77.2544696554541,Charging,1,40,E-Wallet/Card/UPI
Revos,shop no 1 apna bazar neheru nagar delhi,28.5712229642423,77.2543566673994,Charging,1,40,E-Wallet/Card/UPI
Revos,f-3 496 veer bazar neem chowk sangam vihar,28.4967040905667,77.2419055178761,Charging,1,50,E-Wallet/Card/UPI
Revos,f_3 496 veer bazar neem chowk sangam vihar,28.4966669639546,77.2418505325913,Charging,1,50,E-Wallet/Card/UPI
Revos,154 amichand Khand Giri Nagar kalkaji,28.5424812780814,77.2647307813167,Charging,1,40,E-Wallet/Card/UPI
Revos,154 amichand Khand Giri Nagar kalkaji,28.5427410511939,77.2649289295077,Charging,1,40,E-Wallet/Card/UPI
Revos,C 84 A lajpat nagar 1,28.5771367721068,77.2393339499831,Charging,1,100,E-Wallet/Card/UPI
Revos,C 30 E Railway Colony Lajpat Nagar I,28.5758241916282,77.2445555403828,Charging,1,,E-Wallet/Card/UPI
Revos,B 6 upon 4 Okhla phase ii,28.5337042815031,77.2764889150857,Charging,1,40,E-Wallet/Card/UPI
Revos,B 6 upon 4 Okhla phase ii,28.5337033978464,77.2764872387051,Charging,1,40,E-Wallet/Card/UPI
Revos,A 29 gali no 4 Om nagar Mithapur badarpur,28.4967367973333,77.3249229043722,Charging,1,10,E-Wallet/Card/UPI
Revos,RZ 1912 Gali no 25 tughlakabad extension,28.5211432364717,77.2557108476758,Charging,1,50,E-Wallet/Card/UPI
Revos,C 150 main mathura road badarpur near axis bank and jaitpur mod,28.4979858346435,77.3024691268801,Charging,1,40,E-Wallet/Card/UPI
Revos,shop no 1 meethapur village near primery school,28.4986193345883,77.3163897916674,Charging,1,50,E-Wallet/Card/UPI
Revos,A121 double story kalkaji,28.5437524519712,77.2505016624927,Charging,1,50,E-Wallet/Card/UPI
Revos,godawn no 731 mb road Lal kuan delhi 110044,28.504421722485,77.2784465923905,Charging,1,50,E-Wallet/Card/UPI
Revos,b 113 1 amritpuri b garhi,28.5565119376816,77.253121510148,Charging,1,50,E-Wallet/Card/UPI
Revos,34 apna bazar nehru nagar new delhi,28.5714175937296,77.2551968693733,Charging,1,40,E-Wallet/Card/UPI
Revos,34 apna bazar nehru nagar new delhi,28.5715715892715,77.2551365196704,Charging,1,40,E-Wallet/Card/UPI
Revos,"BSES RAJADHANI POWER LIMITED  
office of division head (o&amp;m)
devision - new friends colony , new delhi",28.556767847845,77.2732276841998,Charging,1,,E-Wallet/Card/UPI
Revos,B 23 Bate 3,28.5345767416217,77.2761767730116,Charging,1,40,E-Wallet/Card/UPI
Revos,A-88,28.534385284078,77.2761687263846,Charging,1,40,E-Wallet/Card/UPI
Revos,296 main natura roads,28.5037334550978,77.3005067557096,Charging,1,40,E-Wallet/Card/UPI
Revos,296 main matura road,28.5036321002745,77.3003424704074,Charging,1,40,E-Wallet/Card/UPI
Revos,206 jeewan nagar new delhi 110014 near tikona park opp maharani  bagh,28.5773511174753,77.2619315609335,Charging,1,50,E-Wallet/Card/UPI
Revos,206 jeewan nagar new delhi 110014 near tikona park opp maharani  bagh,28.5772992977559,77.2617619112134,Charging,1,50,E-Wallet/Card/UPI
Revos,saidulajaib opp vidya niketan school mb road saket,28.5202665408969,77.202801592648,Charging,1,50,E-Wallet/Card/UPI
Revos,F2 185 main road ratiya Marg sangam vihar,28.500237836015,77.2463707253336,Charging,1,50,E-Wallet/Card/UPI
Revos,k19,28.4982466013604,77.2456059604883,Charging,1,40,E-Wallet/Card/UPI
Revos,B147C main Sharma market pheladpur,28.499710713481,77.2933147475123,Charging,1,40,E-Wallet/Card/UPI
EESL,"NDMC Parking, Khan Market, New Delhi, 110003",28.600324,77.226883,Charging,1,9.5,Payment Gateway/e-Wallet
EESL,"NDMC Parking, Khan Market, New Delhi, 110003",28.600324,77.226883,Charging,1,9.5,Payment Gateway/e-Wallet
EESL,"NDMC Parking, Khan Market, New Delhi, 110003",28.600324,77.226883,Charging,1,9.5,Payment Gateway/e-Wallet
EESL,"NDMC Parking, Khan Market, New Delhi, 110003",28.600324,77.226883,Charging,1,9.5,Payment Gateway/e-Wallet
EESL,"NDMC Parking, Khan Market, New Delhi, 110003",28.600324,77.226883,Charging,1,9.5,Payment Gateway/e-Wallet
Blusmart,"NDMC Parking, Khan Market, New Delhi, 110003",28.600324,77.226883,Charging,1,9.5,Payment Gateway/e-Wallet
Blusmart,"NDMC Parking, Khan Market, New Delhi, 110003",28.600324,77.226883,Charging,1,9.5,Payment Gateway/e-Wallet
Blusmart,"NDMC Parking, Khan Market, New Delhi, 110003",28.600324,77.226883,Charging,1,9.5,Payment Gateway/e-Wallet
EFILL,"B 102, Panchsheel Vihar, near Apj School, Sheikh Sarai Phase 1, Sheikh Sarai, New Delhi, Delhi 110017",28.5360962,77.2231022,Charging,1,15,"Debit Card, Credit Card, BHIM/UPI, NetBanking, Wallet"
GensolCharge Pvt. Ltd.,"NDMC Parking, Khan Market, New Delhi, 110003",28.600324,77.226883,Charging,1,9.5,Payment Gateway/e-Wallet
REIL,"NDMC Parking, Khan Market, New Delhi, 110003",28.600324,77.226883,Charging,1,9.5,Payment Gateway/e-Wallet
REIL,"NDMC Parking, Khan Market, New Delhi, 110003",28.600324,77.226883,Charging,1,9.5,Payment Gateway/e-Wallet
REIL,"NDMC Parking, Khan Market, New Delhi, 110003",28.600324,77.226883,Charging,1,9.5,Payment Gateway/e-Wallet
Atul Parking Battery Smart,"NDMC Parking, Khan Market, New Delhi, 110003",28.600324,77.226883,Charging,1,9.5,Payment Gateway/e-Wallet
Shivam Enterprises Battery Smart,"NDMC Parking, Khan Market, New Delhi, 110003",28.600324,77.226883,Charging,1,9.5,Payment Gateway/e-Wallet
Ramesh Parking Battery Smart,"NDMC Parking, Khan Market, New Delhi, 110003",28.600324,77.226883,Charging,1,9.5,Payment Gateway/e-Wallet
Jyoti Enterprises Battery Smart,"NDMC Parking, Khan Market, New Delhi, 110003",28.600324,77.226883,Charging,1,9.5,Payment Gateway/e-Wallet
Echargeup,"Shop No-B-308, First Floor, Madanpur Khadar Extention, Sarita Vihar, New Delhi",,,,10,,Cash/E Wallet
Revos,"C-39 MAIN MARKET, West Patel Nagar, New Delhi, Delhi 110008",28.6506416044609,77.164535857737,Charging,1,18,E-Wallet/Card/UPI
EESL,"NDMC Parking, Khan Market, New Delhi, 110003",28.600324,77.226883,Charging,1,9.5,Payment Gateway/e-Wallet
EESL,"NDMC Parking, Khan Market, New Delhi, 110003",28.600324,77.226883,Charging,1,9.5,Payment Gateway/e-Wallet
EESL,"NDMC Parking, Khan Market, New Delhi, 110003",28.600324,77.226883,Charging,1,9.5,Payment Gateway/e-Wallet
EESL,"NDMC Parking, Khan Market, New Delhi, 110003",28.600324,77.226883,Charging,1,9.5,Payment Gateway/e-Wallet
EESL,"NDMC Parking, Khan Market, New Delhi, 110003",28.600324,77.226883,Charging,1,9.5,Payment Gateway/e-Wallet
EESL,"NDMC Parking, Khan Market, New Delhi, 110003",28.600324,77.226883,Charging,1,9.5,Payment Gateway/e-Wallet
EESL,"NDMC Parking, Khan Market, New Delhi, 110003",28.600324,77.226883,Charging,1,9.5,Payment Gateway/e-Wallet
EESL,"NDMC Parking, Khan Market, New Delhi, 110003",28.600324,77.226883,Charging,1,9.5,Payment Gateway/e-Wallet
EESL,"NDMC Parking, Khan Market, New Delhi, 110003",28.600324,77.226883,Charging,1,9.5,Payment Gateway/e-Wallet
EESL,"NDMC Parking, Khan Market, New Delhi, 110003",28.600324,77.226883,Charging,1,9.5,Payment Gateway/e-Wallet
EESL,"NDMC Parking, Khan Market, New Delhi, 110003",28.600324,77.226883,Charging,1,9.5,Payment Gateway/e-Wallet
EESL,"NDMC Parking, Khan Market, New Delhi, 110003",28.600324,77.226883,Charging,1,9.5,Payment Gateway/e-Wallet
EESL,"NDMC Parking, Khan Market, New Delhi, 110003",28.600324,77.226883,Charging,1,9.5,Payment Gateway/e-Wallet
EESL,"NDMC Parking, Khan Market, New Delhi, 110003",28.600324,77.226883,Charging,1,9.5,Payment Gateway/e-Wallet
EESL,"NDMC Parking, Khan Market, New Delhi, 110003",28.600324,77.226883,Charging,1,9.5,Payment Gateway/e-Wallet
EESL,"NDMC Parking, Khan Market, New Delhi, 110003",28.600324,77.226883,Charging,1,9.5,Payment Gateway/e-Wallet
EESL,"NDMC Parking, Khan Market, New Delhi, 110003",28.600324,77.226883,Charging,1,9.5,Payment Gateway/e-Wallet
EESL,"NDMC Parking, Khan Market, New Delhi, 110003",28.600324,77.226883,Charging,1,9.5,Payment Gateway/e-Wallet
EESL,"NDMC Parking, Khan Market, New Delhi, 110003",28.600324,77.226883,Charging,1,9.5,Payment Gateway/e-Wallet
EESL,"NDMC Parking, Khan Market, New Delhi, 110003",28.600324,77.226883,Charging,1,9.5,Payment Gateway/e-Wallet
EESL,"NDMC Parking, Khan Market, New Delhi, 110003",28.600324,77.226883,Charging,1,9.5,Payment Gateway/e-Wallet
EESL,"NDMC Parking, Khan Market, New Delhi, 110003",28.600324,77.226883,Charging,1,9.5,Payment Gateway/e-Wallet
EESL,"NDMC Parking, Khan Market, New Delhi, 110003",28.600324,77.226883,Charging,1,9.5,Payment Gateway/e-Wallet
EESL,"NDMC Parking, Khan Market, New Delhi, 110003",28.600324,77.226883,Charging,1,9.5,Payment Gateway/e-Wallet
EESL,"NDMC Parking, Khan Market, New Delhi, 110003",28.600324,77.226883,Charging,1,9.5,Payment Gateway/e-Wallet
EESL,"NDMC Parking, Khan Market, New Delhi, 110003",28.600324,77.226883,Charging,1,9.5,Payment Gateway/e-Wallet
EESL,"NDMC Parking, Khan Market, New Delhi, 110003",28.600324,77.226883,Charging,1,9.5,Payment Gateway/e-Wallet
EESL,"NDMC Parking, Khan Market, New Delhi, 110003",28.600324,77.226883,Charging,1,9.5,Payment Gateway/e-Wallet
EESL,"NDMC Parking, Khan Market, New Delhi, 110003",28.600324,77.226883,Charging,1,9.5,Payment Gateway/e-Wallet
EESL,"NDMC Parking, Khan Market, New Delhi, 110003",28.600324,77.226883,Charging,1,9.5,Payment Gateway/e-Wallet
EESL,"NDMC Parking, Khan Market, New Delhi, 110003",28.600324,77.226883,Charging,1,9.5,Payment Gateway/e-Wallet
EESL,"NDMC Parking, Khan Market, New Delhi, 110003",28.600324,77.226883,Charging,1,9.5,Payment Gateway/e-Wallet
EESL,"NDMC Parking, Khan Market, New Delhi, 110003",28.600324,77.226883,Charging,1,9.5,Payment Gateway/e-Wallet
EESL,"NDMC Parking, Khan Market, New Delhi, 110003",28.600324,77.226883,Charging,1,9.5,Payment Gateway/e-Wallet
EESL,"NDMC Parking, Khan Market, New Delhi, 110003",28.600324,77.226883,Charging,1,9.5,Payment Gateway/e-Wallet
EESL,"NDMC Parking, Khan Market, New Delhi, 110003",28.600324,77.226883,Charging,1,9.5,Payment Gateway/e-Wallet
EESL,"NDMC Parking, Khan Market, New Delhi, 110003",28.600324,77.226883,Charging,1,9.5,Payment Gateway/e-Wallet
EESL,"NDMC Parking, Khan Market, New Delhi, 110003",28.600324,77.226883,Charging,1,9.5,Payment Gateway/e-Wallet
EESL,"NDMC Parking, Khan Market, New Delhi, 110003",28.600324,77.226883,Charging,1,9.5,Payment Gateway/e-Wallet
EESL,"NDMC Parking, Khan Market, New Delhi, 110003",28.600324,77.226883,Charging,1,9.5,Payment Gateway/e-Wallet
EESL,"NDMC Parking, Khan Market, New Delhi, 110003",28.600324,77.226883,Charging,1,9.5,Payment Gateway/e-Wallet
EESL,"NDMC Parking, Khan Market, New Delhi, 110003",28.600324,77.226883,Charging,1,9.5,Payment Gateway/e-Wallet
EESL,"NDMC Parking, Khan Market, New Delhi, 110003",28.600324,77.226883,Charging,1,9.5,Payment Gateway/e-Wallet
EESL,"NDMC Parking, Khan Market, New Delhi, 110003",28.600324,77.226883,Charging,1,9.5,Payment Gateway/e-Wallet
EESL,"NDMC Parking, Khan Market, New Delhi, 110003",28.600324,77.226883,Charging,1,9.5,Payment Gateway/e-Wallet
EFILL,"16/16, New Rohtak Road, Karol Bagh, Near Ingah Telephone Exchange, Karol Bagh, New Delhi, Delhi 110005",28.6539425,77.2017582,Charging,1,15,"Debit Card, Credit Card, BHIM/UPI, NetBanking, Wallet"
BSES,"NDMC Parking, Khan Market, New Delhi, 110003",28.600324,77.226883,Charging,1,9.5,Payment Gateway/e-Wallet
Ashirwad e rickshaw parking Battery Smart,"NDMC Parking, Khan Market, New Delhi, 110003",28.600324,77.226883,Charging,1,9.5,Payment Gateway/e-Wallet
Vikky parking Battery Smart,"NDMC Parking, Khan Market, New Delhi, 110003",28.600324,77.226883,Charging,1,9.5,Payment Gateway/e-Wallet
Sheetla Trading Company Battery Smart,"NDMC Parking, Khan Market, New Delhi, 110003",28.600324,77.226883,Charging,1,9.5,Payment Gateway/e-Wallet
Panditji Parking Battery Smart,"NDMC Parking, Khan Market, New Delhi, 110003",28.600324,77.226883,Charging,1,9.5,Payment Gateway/e-Wallet
Sanjib parking Battery Smart,"NDMC Parking, Khan Market, New Delhi, 110003",28.600324,77.226883,Charging,1,9.5,Payment Gateway/e-Wallet
Tilak Raj Parking Battery Smart,"NDMC Parking, Khan Market, New Delhi, 110003",28.600324,77.226883,Charging,1,9.5,Payment Gateway/e-Wallet
Echargeup,"8812/14 Shidipura Raja Lane,New Rohtak Road,new Delhi",,,,150,,Cash/E Wallet
Echargeup,"76A Than singh nager Anand Parbat,Karol Bhag-Near BSES Office, New Delhi",,,,30,,Cash/E Wallet
Echargeup,"76A Than singh nager Anand Parbat,Karol Bhag-Near BSES Office, New Delhi",,,,30,,Cash/E Wallet
Echargeup,"1261/3 Naiwala ,karol Bagh New Delhi",,,,20,,Cash/E Wallet
Echargeup,"9/14, Ground Floor,Near Hotel Bharat Palace Old RajenderNagar",,,,20,,Cash/E Wallet
Echargeup,"17/57, E Ground floor, Plot No-10, Gadobia Road, Anand Parvat, New Delhi",,,,20,,Cash/E Wallet
Massive Mobility,"H.no. F-45, New Seema Puri Dilshad Garden",28.685962,77.329070,Charging,2,15,Cash/E-Wallet
Massive Mobility,RZB-161 NIhal Vihar,28.667452,77.075985,Charging,10,15,Cash/E-Wallet
Revos,"ETO BRANCH OFFICE, DEHLI",28.5689395049125,77.187098215445,Charging,1,,E-Wallet/Card/UPI
Revos,Lohia auto new Delhi,28.498025894165,77.1593017578125,Charging,1,,E-Wallet/Card/UPI
Revos,Sahara evols saket,28.5195406691519,77.2008177638053,Charging,1,,E-Wallet/Card/UPI
Revos,"Birla Farm, Opp JVTS Garden Gate, Chattarpur Extension, New Delhi 110074",28.4922370910644,77.1804656982421,Charging,1,,E-Wallet/Card/UPI
Revos,124 A Basement K.H.No.-45/22 Baporla Vihar village Bazorla Near Kalawati school NEW DELHI 110043,28.6354389190673,77.0161590576171,Charging,1,25,E-Wallet/Card/UPI
Revos,"169, Dharampura, Najafgarh, New Delhi  - 110043",28.6033728728444,76.9891988486051,Charging,1,30,E-Wallet/Card/UPI
Revos,"131, Gopal Nagar P Block, Near Green Gold School
Najafgarh, New Delhi -110043",28.6133689880371,76.9650268554687,Charging,1,20,E-Wallet/Card/UPI
Revos,RZ-49/256 GALI NO.3 DAYAL PARK NEAR MCD SCHOOL,28.6054191589355,77.0959320068359,Charging,1,12,E-Wallet/Card/UPI
Revos,"car, Market Kishan Garh Vasant Kunj New Delhi 110070",28.5148011694468,77.1643511205911,Charging,1,30,E-Wallet/Card/UPI
Revos,NA,28.5700325070613,76.9599128141999,Charging,1,,E-Wallet/Card/UPI
Revos,A-113 inderpuri new delhi 12,28.6276651362855,77.1476124599576,Charging,1,25,E-Wallet/Card/UPI
Revos,RZG- 19 DEV KUNJ DWARKA SEC 7 NEAR MELA GROUND PALAM COLONY NEW DELHI-110075,28.5804271697998,77.0772247314453,Charging,1,40,E-Wallet/Card/UPI
Revos,"c252 ,dada Dev comply sec.7 dwarka",28.5831214957187,77.0757326111197,Charging,1,40,E-Wallet/Card/UPI
Revos,WZ  879 G/F  KH  NO 33/25 Palam Extn Near Swagat Bharat NewDelhi,28.5855135822441,77.0750640705227,Charging,1,50,E-Wallet/Card/UPI
Revos,Dwarka sce 7 Near Dada dev colony Delhi 110075,28.583754483909,77.0755130052566,Charging,1,50,E-Wallet/Card/UPI
Revos,V.K Auto Spear parts  Railway Line  Road. Pipal Wali Gali. Raj Nagar  -part  2,28.5802565140812,77.0878069102764,Charging,1,50,E-Wallet/Card/UPI
Revos,Wheel Cart Palam metro station ke Samne,28.5882618384794,77.0828622579574,Charging,1,50,E-Wallet/Card/UPI
Revos,Mahesh auto service center WZ 907,28.5867300661736,77.0774173736572,Charging,1,50,E-Wallet/Card/UPI
Revos,Rz 134 B Block New Gopal Nagar Najafgarh new delhi,28.6056102587308,76.9679487124085,Charging,1,20,E-Wallet/Card/UPI
Revos,d-9 gf devkunj vill palam near JJ colony new delhi 110045,28.5851599984816,77.0772390067577,Charging,1,50,E-Wallet/Card/UPI
Revos,d-9 gf devkunj vill palam near JJ colony new delhi 110045,28.5851947386541,77.0771810039877,Charging,1,50,E-Wallet/Card/UPI
Revos,D-251 Mangla puri village main road palam colony,28.587850561426,77.0864604413509,Charging,1,350,E-Wallet/Card/UPI
Revos,"plott 161, amberhai extension",28.5766203393013,77.0478782057762,Charging,1,,E-Wallet/Card/UPI
Revos,Rz20 e/4 Raj nagar part 1 palam colony near nirankari bhawan New delhi,28.5830258111259,77.0879225805401,Charging,1,50,E-Wallet/Card/UPI
Revos,m25 commander chowk Vikas nagar new delhi 110059,28.6408952506112,77.0486272126436,Charging,1,,E-Wallet/Card/UPI
Revos,"Gupta auto service centre , shop no 1 nasirpur road, opposite Aman band near by palam fly over , palam new delhi",28.5907306445853,77.0829671993851,Charging,1,40,E-Wallet/Card/UPI
Revos,shop no. 19/22 kh no 25/21 pankaj garden main Goyla Dairy road near kiker bus stand qutub vihar Goyla Dairy new delhi 110071,28.5780177052258,77.0311030000448,Charging,1,40,E-Wallet/Card/UPI
Revos,shop no 19/22 kh.no 25/21 pankaj garden main Goyla Dairy road near kiker bus stand qutub vihar Goyla Dairy new delhi 110071,28.5781192829352,77.0312106236815,Charging,1,40,E-Wallet/Card/UPI
Revos,NA,28.6054415954639,77.0958900824189,Charging,1,,E-Wallet/Card/UPI
Revos,"ETO BRANCH OFFICE, DELHI",28.5689389160051,77.1870968743405,Charging,1,,E-Wallet/Card/UPI
Revos,G257 vishwas Park behind akash hospital sec.3 dwarka,28.605544618434,77.0543681457638,Charging,1,50,E-Wallet/Card/UPI
Revos,wz 300 c palam village,28.5898536450966,77.0756397396326,Charging,1,50,E-Wallet/Card/UPI
Revos,H 655 C main Ramphal Chowk Road palam extn Sector 7 Dwarka 110077,28.5868893385599,77.0722983777523,Charging,1,50,E-Wallet/Card/UPI
Revos,najafgarh,28.5999161784141,76.9990898296237,Charging,1,10,E-Wallet/Card/UPI
Revos,Main Chattarpur Road,28.4986794432228,77.1855844929814,Charging,1,100,E-Wallet/Card/UPI
Revos,house no 10 A main road chattarpur gaon,28.5012019124516,77.1832690760493,Charging,1,15,E-Wallet/Card/UPI
Revos,Chhawla village main bus stand,28.5611376608297,77.0023530721664,Charging,1,15,E-Wallet/Card/UPI
Revos,Qtr no 874 Rkpuram sector 6,28.5660287856148,77.1716235950589,Charging,1,10,E-Wallet/Card/UPI
Revos,MBR Enclave pochanpur sector 23 dwarka,28.5594182042077,77.0504239574074,Charging,1,40,E-Wallet/Card/UPI
Revos,MBR Enclave near mata mandir dwarka,28.5593316269541,77.0505959540605,Charging,1,40,E-Wallet/Card/UPI
Revos,Harmony Apartments  Sector 4  pocket 1  Dwarka,28.598089321143,77.0506308227777,Charging,1,40,E-Wallet/Card/UPI
Revos,komaki,28.5183787926139,77.0819834992289,Charging,1,45,E-Wallet/Card/UPI
Revos,A10 main road chhatarpur gaon,28.5011662606375,77.1830105781555,Charging,1,50,E-Wallet/Card/UPI
EESL,"NDMC Parking, Khan Market, New Delhi, 110003",28.600324,77.226883,Charging,1,9.5,Payment Gateway/e-Wallet
EESL,"NDMC Parking, Khan Market, New Delhi, 110003",28.600324,77.226883,Charging,1,9.5,Payment Gateway/e-Wallet
EESL,"NDMC Parking, Khan Market, New Delhi, 110003",28.600324,77.226883,Charging,1,9.5,Payment Gateway/e-Wallet
EESL,"NDMC Parking, Khan Market, New Delhi, 110003",28.600324,77.226883,Charging,1,9.5,Payment Gateway/e-Wallet
EESL,"NDMC Parking, Khan Market, New Delhi, 110003",28.600324,77.226883,Charging,1,9.5,Payment Gateway/e-Wallet
EESL,"NDMC Parking, Khan Market, New Delhi, 110003",28.600324,77.226883,Charging,1,9.5,Payment Gateway/e-Wallet
EESL,"NDMC Parking, Khan Market, New Delhi, 110003",28.600324,77.226883,Charging,1,9.5,Payment Gateway/e-Wallet
EESL,"NDMC Parking, Khan Market, New Delhi, 110003",28.600324,77.226883,Charging,1,9.5,Payment Gateway/e-Wallet
EESL,"NDMC Parking, Khan Market, New Delhi, 110003",28.600324,77.226883,Charging,1,9.5,Payment Gateway/e-Wallet
EESL,"NDMC Parking, Khan Market, New Delhi, 110003",28.600324,77.226883,Charging,1,9.5,Payment Gateway/e-Wallet
EESL,"NDMC Parking, Khan Market, New Delhi, 110003",28.600324,77.226883,Charging,1,9.5,Payment Gateway/e-Wallet
EESL,"NDMC Parking, Khan Market, New Delhi, 110003",28.600324,77.226883,Charging,1,9.5,Payment Gateway/e-Wallet
EESL,"NDMC Parking, Khan Market, New Delhi, 110003",28.600324,77.226883,Charging,1,9.5,Payment Gateway/e-Wallet
EESL,"NDMC Parking, Khan Market, New Delhi, 110003",28.600324,77.226883,Charging,1,9.5,Payment Gateway/e-Wallet
EESL,"NDMC Parking, Khan Market, New Delhi, 110003",28.600324,77.226883,Charging,1,9.5,Payment Gateway/e-Wallet
EESL,"NDMC Parking, Khan Market, New Delhi, 110003",28.600324,77.226883,Charging,1,9.5,Payment Gateway/e-Wallet
EESL,"NDMC Parking, Khan Market, New Delhi, 110003",28.600324,77.226883,Charging,1,9.5,Payment Gateway/e-Wallet
EESL,"NDMC Parking, Khan Market, New Delhi, 110003",28.600324,77.226883,Charging,1,9.5,Payment Gateway/e-Wallet
EESL,"NDMC Parking, Khan Market, New Delhi, 110003",28.600324,77.226883,Charging,1,9.5,Payment Gateway/e-Wallet
EESL,"NDMC Parking, Khan Market, New Delhi, 110003",28.600324,77.226883,Charging,1,9.5,Payment Gateway/e-Wallet
EESL,"NDMC Parking, Khan Market, New Delhi, 110003",28.600324,77.226883,Charging,1,9.5,Payment Gateway/e-Wallet
EESL,"NDMC Parking, Khan Market, New Delhi, 110003",28.600324,77.226883,Charging,1,9.5,Payment Gateway/e-Wallet
EESL,"NDMC Parking, Khan Market, New Delhi, 110003",28.600324,77.226883,Charging,1,9.5,Payment Gateway/e-Wallet
Blusmart,"NDMC Parking, Khan Market, New Delhi, 110003",28.600324,77.226883,Charging,1,9.5,Payment Gateway/e-Wallet
Blusmart,"NDMC Parking, Khan Market, New Delhi, 110003",28.600324,77.226883,Charging,1,9.5,Payment Gateway/e-Wallet
Blusmart,"NDMC Parking, Khan Market, New Delhi, 110003",28.600324,77.226883,Charging,1,9.5,Payment Gateway/e-Wallet
Blusmart,"NDMC Parking, Khan Market, New Delhi, 110003",28.600324,77.226883,Charging,1,9.5,Payment Gateway/e-Wallet
Blusmart,"NDMC Parking, Khan Market, New Delhi, 110003",28.600324,77.226883,Charging,1,9.5,Payment Gateway/e-Wallet
EFILL,"Plot No 550, Gali Number D-18 Chhatarpur Pahari, Main 100 Feet Rd, New Delhi, Delhi 110074",28.5079196,77.1850728,Charging,1,15,"Debit Card, Credit Card, BHIM/UPI, NetBanking, Wallet"
EFILL,"E-1/17A Palam Ext Near Vardhman Mall, Sector 7 Dwarka, New Delhi, Delhi 110075",28.5841269,77.0719511,Charging,1,15,"Debit Card, Credit Card, BHIM/UPI, NetBanking, Wallet"
EFILL,"RZ-37, Raghu Nagar Pankha Road",28.61175,77.05972,Charging,1,15,"Debit Card, Credit Card, BHIM/UPI, NetBanking, Wallet"
EEE,"NDMC Parking, Khan Market, New Delhi, 110003",28.600324,77.226883,Charging,1,9.5,Payment Gateway/e-Wallet
EEE,"NDMC Parking, Khan Market, New Delhi, 110003",28.600324,77.226883,Charging,1,9.5,Payment Gateway/e-Wallet
HPCL,"NDMC Parking, Khan Market, New Delhi, 110003",28.600324,77.226883,Charging,1,9.5,Payment Gateway/e-Wallet
Kashyap E Charging Battery Smart,"NDMC Parking, Khan Market, New Delhi, 110003",28.600324,77.226883,Charging,1,9.5,Payment Gateway/e-Wallet
Nabanita Das Battery Smart,"NDMC Parking, Khan Market, New Delhi, 110003",28.600324,77.226883,Charging,1,9.5,Payment Gateway/e-Wallet
Luhania Auto  Battery Smart,"NDMC Parking, Khan Market, New Delhi, 110003",28.600324,77.226883,Charging,1,9.5,Payment Gateway/e-Wallet
Manav E Rickshaw Battery Smart,"NDMC Parking, Khan Market, New Delhi, 110003",28.600324,77.226883,Charging,1,9.5,Payment Gateway/e-Wallet
Yograj parking Battery Smart,"NDMC Parking, Khan Market, New Delhi, 110003",28.600324,77.226883,Charging,1,9.5,Payment Gateway/e-Wallet
Krishna E- Rickshaw parking Battery Smart,"NDMC Parking, Khan Market, New Delhi, 110003",28.600324,77.226883,Charging,1,9.5,Payment Gateway/e-Wallet
Raghu parking Battery Smart,"NDMC Parking, Khan Market, New Delhi, 110003",28.600324,77.226883,Charging,1,9.5,Payment Gateway/e-Wallet
Jai Dada Dev Enterprises Battery Smart,"NDMC Parking, Khan Market, New Delhi, 110003",28.600324,77.226883,Charging,1,9.5,Payment Gateway/e-Wallet
A.S. Telematics Pvt Ltd Battery Smart,"NDMC Parking, Khan Market, New Delhi, 110003",28.600324,77.226883,Charging,1,9.5,Payment Gateway/e-Wallet
Shri Subash Battery Battery Smart,"NDMC Parking, Khan Market, New Delhi, 110003",28.600324,77.226883,Charging,1,9.5,Payment Gateway/e-Wallet
Malhotraa Swapping point Battery Smart,"NDMC Parking, Khan Market, New Delhi, 110003",28.600324,77.226883,Charging,1,9.5,Payment Gateway/e-Wallet
Shri shyam enterprises Battery Smart,"NDMC Parking, Khan Market, New Delhi, 110003",28.600324,77.226883,Charging,1,9.5,Payment Gateway/e-Wallet
Afsar parking Battery Smart,"NDMC Parking, Khan Market, New Delhi, 110003",28.600324,77.226883,Charging,1,9.5,Payment Gateway/e-Wallet
Sahib Ji E Rickshaw Parking Battery Smart,"NDMC Parking, Khan Market, New Delhi, 110003",28.600324,77.226883,Charging,1,9.5,Payment Gateway/e-Wallet
Gautam Rickshaw Charging Centre Battery Smart,"NDMC Parking, Khan Market, New Delhi, 110003",28.600324,77.226883,Charging,1,9.5,Payment Gateway/e-Wallet
S K Motors Battery Smart,"NDMC Parking, Khan Market, New Delhi, 110003",28.600324,77.226883,Charging,1,9.5,Payment Gateway/e-Wallet
Aniket E Rickshaw Swapping Point Battery Smart,"NDMC Parking, Khan Market, New Delhi, 110003",28.600324,77.226883,Charging,1,9.5,Payment Gateway/e-Wallet
Echargeup,"G BLOCK ,KASIPURA SCHOOL NAGRI DAIRY NAJAFGARH",,,,20,,Cash/E Wallet
Echargeup,"RZ-728, Rajnagar, Part-2, Palam Village, New Delhi",,,,15,,Cash/E Wallet
Echargeup,"RZ-19c/Za, Gali no-3, Main Sagar Pur, South West Delhi",,,,15,,Cash/E Wallet
Echargeup,"B 13/ KH, 24/7/2, Vikas Vihar, Kakrola New Delhi-110043",,,,10,,Cash/E Wallet
Echargeup,"KH-No-61/24,PP No-167, C-Block, Main Goyla Road, Qutub Vihar-PH-I, Najafgarh, New Delhi",,,,10,,Cash/E Wallet
Echargeup,"Plot No-67/68, Shop No-2, Village Amberhai, Sector-19, Dwarka, New Delhi",,,,10,,Cash/E Wallet
Echargeup,"Shop No-RZ-62-K/6A, Ground Flour, Vashist Park New Delhi",,,,10,,Cash/E Wallet
Massive Mobility,Kalindi kunj Road Jaitpur,28.508337,77.337935,Charging,1,15,Cash/E-Wallet
Massive Mobility,"N118/R6, Wazirpur Village Ashok Vihar Phase 1",28.687672,77.173287,Charging,1,15,Cash/E-Wallet
Revos,sector 14 rohini,28.7175693511962,77.1259841918945,Charging,1,2,E-Wallet/Card/UPI
Revos,"7882, Dina nath road, kharian mohalla new delhi",28.6698506619531,77.2018376737833,Charging,1,,E-Wallet/Card/UPI
Revos,Pocket 3 Sector 23 Rohini Delhi,28.7218468618982,77.0788211748004,Charging,1,30,E-Wallet/Card/UPI
Revos,"shop no.2, harphool singh building ,clock tower, subzi mandi, delhi",28.6753179787367,77.201842367649,Charging,1,20,E-Wallet/Card/UPI
Revos,2466 roshnara road subzi mandi delhi,28.6725822968653,77.2017639130353,Charging,1,20,E-Wallet/Card/UPI
Revos,2466 roshnara road subzi mandi delhi 110007,28.6733918308134,77.2018467262387,Charging,1,20,E-Wallet/Card/UPI
Revos,sing Shbha rod Saktinagar 5/4  car max Amba chimera,28.6757678985595,77.1991348266601,Charging,1,50,E-Wallet/Card/UPI
Revos,M-358 chander shekhar azad colony kishan Ganj,28.6668491363525,77.1951675415039,Charging,1,,E-Wallet/Card/UPI
Revos,"B9/177,sector-5, rohini ,delhi-85",28.715103149414,77.108039855957,Charging,1,,E-Wallet/Card/UPI
Revos,"H.No-80, St.No-1, A-Block, Harit Vihar Colony, Burari, Delhi",28.7396167956603,77.1925166621804,Charging,1,,E-Wallet/Card/UPI
Revos,shop no12 old rohtak road kishan ganj market,28.6637955683993,77.1969721466302,Charging,1,50,E-Wallet/Card/UPI
Revos,sangam park dda market shop no14,28.6906876524917,77.1911557763814,Charging,1,40,E-Wallet/Card/UPI
Revos,sangam park dda market shop no14,28.6907026522197,77.190773896873,Charging,1,40,E-Wallet/Card/UPI
Revos,sangam park dda market,28.6905888307011,77.191418968141,Charging,1,40,E-Wallet/Card/UPI
Revos,8785 roashanara road new Delhi,28.6673048764867,77.2077324986457,Charging,1,50,E-Wallet/Card/UPI
Revos,House No 2 First Floor Ishwar Colony,28.6935607964493,77.1949725598096,Charging,1,100,E-Wallet/Card/UPI
Revos,4773A Roshanara road,28.670862016457,77.2023630514741,Charging,1,40,E-Wallet/Card/UPI
Revos,Shop No 6 Roop Nagar Delhi 110007,28.6832972310764,77.197473719716,Charging,1,40,E-Wallet/Card/UPI
Revos,Shop No 6 Roop Nagar Delhi,28.6832698766952,77.197370454669,Charging,1,40,E-Wallet/Card/UPI
EFILL,"Shop No.5, Lucknow Rd, Opp. Allahabad Bank, Banarsi Das Estate, Timarpur, Delhi-110054",28.6971921,77.2166152,Charging,1,15,"Debit Card, Credit Card, BHIM/UPI, NetBanking, Wallet"
EFILL,"Akash Ganga Apartment, Pocket-4, Rohini Sector-24",28.7264561,77.0834144,Charging,1,15,"Debit Card, Credit Card, BHIM/UPI, NetBanking, Wallet"
EFILL,"Address:27/1, Rajapur, Pocket 27/1, Sector 9, Rohini, Delhi, 110085",28.712543,77.123276,Charging,1,15,"Debit Card, Credit Card, BHIM/UPI, NetBanking, Wallet"
Power House Battery and Parts Traders Battery Smart,"NDMC Parking, Khan Market, New Delhi, 110003",28.600324,77.226883,Charging,1,9.5,Payment Gateway/e-Wallet
Punjab Batteries Battery Smart,"NDMC Parking, Khan Market, New Delhi, 110003",28.600324,77.226883,Charging,1,9.5,Payment Gateway/e-Wallet
Khan service center Battery Smart,"NDMC Parking, Khan Market, New Delhi, 110003",28.600324,77.226883,Charging,1,9.5,Payment Gateway/e-Wallet
Rohini COCO Battery Smart,"NDMC Parking, Khan Market, New Delhi, 110003",28.600324,77.226883,Charging,1,9.5,Payment Gateway/e-Wallet
BMR Enterprises Battery Smart,"NDMC Parking, Khan Market, New Delhi, 110003",28.600324,77.226883,Charging,1,9.5,Payment Gateway/e-Wallet
Chiranshu Charging Point Battery Smart,"NDMC Parking, Khan Market, New Delhi, 110003",28.600324,77.226883,Charging,1,9.5,Payment Gateway/e-Wallet
Yash Electronics Battery Smart,"NDMC Parking, Khan Market, New Delhi, 110003",28.600324,77.226883,Charging,1,9.5,Payment Gateway/e-Wallet
Sushil Parking  Battery Smart,"NDMC Parking, Khan Market, New Delhi, 110003",28.600324,77.226883,Charging,1,9.5,Payment Gateway/e-Wallet
Rehmat Parking  Battery Smart,"NDMC Parking, Khan Market, New Delhi, 110003",28.600324,77.226883,Charging,1,9.5,Payment Gateway/e-Wallet
Echargeup,"H. No. 4, Pocket -15A, FF,Rohini,North West Delhi",,,,70,,Cash/E Wallet
Echargeup,"Ground Floor , Floor Gate No.3, Rithala Metro Station, Area Covered by Green Fence, Village City",,,,15,,Cash/E Wallet
Echargeup,"House No-93, Shop No-PVT-1, Ground Floor, Block- B, Pocket -5, Sector-4, Rohini, New Delhi",,,,10,,Cash/E Wallet
Revos,Main road brijpuri phase-1 near brijpuri puliya Sony medical Delhi  110094,28.7083134969141,77.276582121849,Charging,1,50,E-Wallet/Card/UPI
Revos,Main road brijpuri phase-1 near brijpuri puliya Sony medical Delhi  110094,28.7083046750296,77.2765737399458,Charging,1,50,E-Wallet/Card/UPI
Revos,Main road brijpuri phase-1 near brijpuri puliya Sony medical Delhi  110094,28.7083293763043,77.2765734046697,Charging,1,50,E-Wallet/Card/UPI
Revos,"Home no.98,O block fhase 4 shive vihar dehli karaval nagar 94 near shiv shakti school",28.7268733978271,77.2829818725586,Charging,1,30,E-Wallet/Card/UPI
Revos,E11/162 shastri park Delhi 53,28.6725684711948,77.2535375878214,Charging,1,40,E-Wallet/Card/UPI
Revos,D-18/241 Brijpuri Main Road near Arun morden senior sec. School Delhi 110094,28.707253983268,77.2757580131292,Charging,1,40,E-Wallet/Card/UPI
Revos,D-18/241 Brijpuri Main Road near Arun morden senior Sec. school Delhi 110094,28.7072134021822,77.2761261463165,Charging,1,40,E-Wallet/Card/UPI
Revos,D-18/241 Brijpuri Main Road near Arun morden senior sec. School Delhi 110094,28.7071742914108,77.2759940475225,Charging,1,40,E-Wallet/Card/UPI
Revos,B 8 MAIN ROAD JOHRI PUR EXTANSION OPP LALIT BUILDER NEAHDFCR BANK ATM DELHI,28.7122329865951,77.2879124432802,Charging,1,40,E-Wallet/Card/UPI
Revos,B-8 JOHRI PUR EXTANSION OPP LALIT BUILDER NEAR HDFC BANK ATM DELHI,28.712478519548,77.287827283144,Charging,1,40,E-Wallet/Card/UPI
Revos,B-8 JOHRI PUR EXTANSION OPP LALIT BUILDER NEAR HDFC BANK ATM DELHI,28.7130386853849,77.2867406532168,Charging,1,40,E-Wallet/Card/UPI
Revos,D-18/241 main road Brijpuri near Arun morden public school,28.7068884588629,77.2759836539626,Charging,1,45,E-Wallet/Card/UPI
EFILL,"Near MRL school Prakash Vihar, Karawal Nagar, Delhi, 110094",28.73396,77.26943,Charging,1,15,"Debit Card, Credit Card, BHIM/UPI, NetBanking, Wallet"
EFILL,"B-193, Gali No.-16, Khajoori khas, North East Delhi, Delhi-110094",28.708321,77.258086,Charging,1,15,"Debit Card, Credit Card, BHIM/UPI, NetBanking, Wallet"
Shakumbhari Enterprises Battery Smart,"NDMC Parking, Khan Market, New Delhi, 110003",28.600324,77.226883,Charging,1,9.5,Payment Gateway/e-Wallet
Samrat Electrical Vehicles Battery Smart,"NDMC Parking, Khan Market, New Delhi, 110003",28.600324,77.226883,Charging,1,9.5,Payment Gateway/e-Wallet
Al-Hind Erickshaw Battery Smart,"NDMC Parking, Khan Market, New Delhi, 110003",28.600324,77.226883,Charging,1,9.5,Payment Gateway/e-Wallet
Pawan Yadav Parking Battery Smart,"NDMC Parking, Khan Market, New Delhi, 110003",28.600324,77.226883,Charging,1,9.5,Payment Gateway/e-Wallet
Echargeup,"E-8 ,Main wazirabad road ,chand bagh, opp bhanjanpura petrol pump",,,,30,,Cash/E Wallet
Echargeup,"46-A G/F No-5 Gali Noo-1 Near kashi ram dairy,kabir nager ,shahdara EAST Delhi",,,,20,,Cash/E Wallet
Massive Mobility,"Shop No-48, NH-5, NIT, Faridabad",28.405363,77.305530,Charging,1,15,Cash/E-Wallet
Massive Mobility,"Gali No 3, Haider Pur Shalimar Bagh",28.719925,77.147019,Charging,1,15,Cash/E-Wallet
Massive Mobility,"WP-569, Wazirpur, Ashok Vihar",28.690285,77.174823,Charging,1,15,Cash/E-Wallet
Massive Mobility,"F-34, Laxmi Park, Peera Gadi Nihal Vihar",28.670840,77.068551,Charging,5,15,Cash/E-Wallet
Massive Mobility,"Plot no. 2, Kh no. 16/3/2(2-11), MBR Enclave Pochanpur extn",28.563851,77.049588,Charging,3,15,Cash/E-Wallet
Revos,142 Deepali Enclave Pitampura Delhi 110034,28.6944923400878,77.118911743164,Charging,1,20,E-Wallet/Card/UPI
Revos,"473, Britannia Rd, Tri Nagar, Delhi, 110034",28.6806158794797,77.1554455161094,Charging,1,10,E-Wallet/Card/UPI
Revos,"473, Britannia Rd, Tri Nagar, Delhi, 110034zypp",28.6807207,77.1553153,Charging,1,5,E-Wallet/Card/UPI
Revos,"plot no-57, kh. no-13/13, 13/1, 13/2 Railway road, samepur Delhi-42",28.7495053449427,77.1460011228918,Charging,1,,E-Wallet/Card/UPI
Revos,"473, Britannia Rd, Tri Nagar, Delhi, 110034",28.6807207,77.1553153,Charging,1,5,E-Wallet/Card/UPI
Revos,"473, Britannia Rd, Tri Nagar, Delhi, 110034",28.6807207,77.1553153,Charging,1,5,E-Wallet/Card/UPI
Revos,"BB-7A, SHOP NO.3, SHALIMAR BAGH,  NEAR UNDERPASS,OPP FLAG, NEW DELHI-110088",28.7196903228759,77.161018371582,Charging,1,20,E-Wallet/Card/UPI
Revos,"Nithari Chowk, Fauji Vatika, ShivRam Pan Bhandar
Kirari Suleman Nagar, Delhi-110086",28.7043342590332,77.0538101196289,Charging,1,10,E-Wallet/Card/UPI
Revos,Pocket 3 Sector 23 Rohini Delhi,28.7209403796492,77.0801807194948,Charging,1,30,E-Wallet/Card/UPI
Revos,"plot no-1,khasra no-768/1, siraspur",28.7605628967285,77.1264114379882,Charging,1,15,E-Wallet/Card/UPI
Revos,A 59 Gali No 6 Suraj Park Delhi 110042,28.7434107651609,77.1355824172496,Charging,1,20,E-Wallet/Card/UPI
Revos,baldev vihar delhi,28.7384079644107,77.0419029146432,Charging,1,40,E-Wallet/Card/UPI
Revos,shop No 18  Main Chowk Budhpur Delhi 110036,28.7814617156982,77.1375503540039,Charging,1,50,E-Wallet/Card/UPI
Revos,D 70 Guru Nanak Dev Colony Bhalswa dairy near shiv chowk Delhi 110042,28.7506011733978,77.1773454174399,Charging,1,70,E-Wallet/Card/UPI
Revos,f 53 Rajiv Nagar begumpur village New Delhi,28.7283687591552,77.056037902832,Charging,1,50,E-Wallet/Card/UPI
Revos,B 220 gali no.8 prem nagar 2 gaurav nagar anand nagar kirari suleman nagar delhi,28.7001800537109,77.0547790527343,Charging,1,30,E-Wallet/Card/UPI
Revos,"37A DDA JANTA FLAT PITAMPURA NEAR SHIVA MARKET
DELHI 110034",28.7009163796742,77.1321498602628,Charging,1,40,E-Wallet/Card/UPI
Revos,"37 A dda Janta flat Pitampura Shiva market
Delhi 110034",28.7009516696995,77.1321176737547,Charging,1,40,E-Wallet/Card/UPI
Revos,n-20 63b wazirpur indl area udham singh park a block,28.6979905011043,77.1602540463209,Charging,1,10,E-Wallet/Card/UPI
Revos,"C-63, Rajan Babu Road, Adarsh Nagar, Delhi-110033",28.7193732023745,77.1737760677933,Charging,1,50,E-Wallet/Card/UPI
Revos,house no 5 near old bus stand Badli village,28.7365788162159,77.1448015049099,Charging,1,,E-Wallet/Card/UPI
Revos,Ho 5 Badli village near old bus stand,28.7361090298177,77.144666723907,Charging,1,40,E-Wallet/Card/UPI
Revos,Ho 5 Badli village near old bus stand,28.7364362342094,77.1450797840952,Charging,1,40,E-Wallet/Card/UPI
Revos,F 1217 BALMIKI MANDIR MANGO L PURI,28.6964023932538,77.0962870493531,Charging,1,1,E-Wallet/Card/UPI
Revos,H no50  gali no7 onkar nagar B tri Nagar Delhi 110035,28.6733997731576,77.1593850106,Charging,1,40,E-Wallet/Card/UPI
Revos,H no50 Gali no7 Onkar Nagar Tri Nagar Delhi 110035,28.6734265417949,77.1593635529279,Charging,1,40,E-Wallet/Card/UPI
Revos,H n0 50 Gali no7 Onkar Nagar BTri Nagar Delhi 110035,28.673516849125,77.1594889461994,Charging,1,40,E-Wallet/Card/UPI
Revos,wp 65a pitam pura,28.7082320414858,77.1506695076823,Charging,1,,E-Wallet/Card/UPI
Revos,7724 Fasih Building Clock Tower Delhi 110007,28.6860917523024,77.185731343925,Charging,1,90,E-Wallet/Card/UPI
EFILL,"D-99, Sector-5, DISIDC Bawana Industrial Area, Delhi-110039",28.7981025,77.080616,Charging,1,15,"Debit Card, Credit Card, BHIM/UPI, NetBanking, Wallet"
EFILL,"&nbsp;E-127, near RYAN SECHOOL, Prahlad Vihar, Sector 25, Rohini, Delhi, 110042",28.7378801,77.0899587,Charging,1,15,"Debit Card, Credit Card, BHIM/UPI, NetBanking, Wallet"
EFILL,"Plot No.4, Opp Kanishka Farm, Near Rama Vihar Bus stand Main Kanjhawala Road, Delhi -110081",28.72842,77.04717,Charging,1,15,"Debit Card, Credit Card, BHIM/UPI, NetBanking, Wallet"
EFILL,"3/6, Shahdra GT Road nearby HP Petrol Pump, Delhi-110034",28.6754883,77.2917404,Charging,1,15,"Debit Card, Credit Card, BHIM/UPI, NetBanking, Wallet"
EFILL,"AW-115, Sanjay Gandhi Transport Nagar, Delhi -110042",28.739014,77.1493044,Charging,1,15,"Debit Card, Credit Card, BHIM/UPI, NetBanking, Wallet"
EFILL,"C 14, Plot No 65, Sma, Jahangirpuri Industrial Area, Azadpur, New Delhi, Delhi 110033",28.726506,77.1583246,Charging,1,15,"Debit Card, Credit Card, BHIM/UPI, NetBanking, Wallet"
EFILL,"A-38, DSIIDC, Bawana Industrial Area, Sec-5",28.7926999,77.0727241,Charging,1,15,"Debit Card, Credit Card, BHIM/UPI, NetBanking, Wallet"
EFILL,"A1/2, Britannia Rd, A1 Block, Block A1, Keshav Puram, Tri Nagar, Delhi, 110035",28.6816184,77.1548718,Charging,1,15,"Debit Card, Credit Card, BHIM/UPI, NetBanking, Wallet"
TPDDL,"NDMC Parking, Khan Market, New Delhi, 110003",28.600324,77.226883,Charging,1,9.5,Payment Gateway/e-Wallet
Punjab EV Battery &amp; Invertor Battery Smart,"NDMC Parking, Khan Market, New Delhi, 110003",28.600324,77.226883,Charging,1,9.5,Payment Gateway/e-Wallet
Anshu Battery Battery Smart,"NDMC Parking, Khan Market, New Delhi, 110003",28.600324,77.226883,Charging,1,9.5,Payment Gateway/e-Wallet
Pappu Garage Battery Smart,"NDMC Parking, Khan Market, New Delhi, 110003",28.600324,77.226883,Charging,1,9.5,Payment Gateway/e-Wallet
Preeti Automobile Battery Smart,"NDMC Parking, Khan Market, New Delhi, 110003",28.600324,77.226883,Charging,1,9.5,Payment Gateway/e-Wallet
RS Power Solutions Battery Smart,"NDMC Parking, Khan Market, New Delhi, 110003",28.600324,77.226883,Charging,1,9.5,Payment Gateway/e-Wallet
RK batteries Battery Smart,"NDMC Parking, Khan Market, New Delhi, 110003",28.600324,77.226883,Charging,1,9.5,Payment Gateway/e-Wallet
Alco E-Rickshaw &amp; Battery Battery Smart,"NDMC Parking, Khan Market, New Delhi, 110003",28.600324,77.226883,Charging,1,9.5,Payment Gateway/e-Wallet
Mahamaya Charging Point Battery Smart,"NDMC Parking, Khan Market, New Delhi, 110003",28.600324,77.226883,Charging,1,9.5,Payment Gateway/e-Wallet
Harinder Charging Point Battery Smart,"NDMC Parking, Khan Market, New Delhi, 110003",28.600324,77.226883,Charging,1,9.5,Payment Gateway/e-Wallet
Satyam Power Electronics Battery Smart,"NDMC Parking, Khan Market, New Delhi, 110003",28.600324,77.226883,Charging,1,9.5,Payment Gateway/e-Wallet
JS Enterprises Battery Smart,"NDMC Parking, Khan Market, New Delhi, 110003",28.600324,77.226883,Charging,1,9.5,Payment Gateway/e-Wallet
RS Power Solution Battery Smart,"NDMC Parking, Khan Market, New Delhi, 110003",28.600324,77.226883,Charging,1,9.5,Payment Gateway/e-Wallet
Sharma ji E Rickshaw Parking Battery Smart,"NDMC Parking, Khan Market, New Delhi, 110003",28.600324,77.226883,Charging,1,9.5,Payment Gateway/e-Wallet
Jatin E Rickshaw Parking Battery Smart,"NDMC Parking, Khan Market, New Delhi, 110003",28.600324,77.226883,Charging,1,9.5,Payment Gateway/e-Wallet
Shivam E Rickshaw Parking Battery Smart,"NDMC Parking, Khan Market, New Delhi, 110003",28.600324,77.226883,Charging,1,9.5,Payment Gateway/e-Wallet
Lalit E Rickshaw Parking Battery Smart,"NDMC Parking, Khan Market, New Delhi, 110003",28.600324,77.226883,Charging,1,9.5,Payment Gateway/e-Wallet
Sunny parking Battery Smart,"NDMC Parking, Khan Market, New Delhi, 110003",28.600324,77.226883,Charging,1,9.5,Payment Gateway/e-Wallet
Copper Power Battery Smart,"NDMC Parking, Khan Market, New Delhi, 110003",28.600324,77.226883,Charging,1,9.5,Payment Gateway/e-Wallet
Vishal Batteries Battery Smart,"NDMC Parking, Khan Market, New Delhi, 110003",28.600324,77.226883,Charging,1,9.5,Payment Gateway/e-Wallet
Shri Krishan Enterprises Battery Smart,"NDMC Parking, Khan Market, New Delhi, 110003",28.600324,77.226883,Charging,1,9.5,Payment Gateway/e-Wallet
Supreme Power Solutions Battery Smart,"NDMC Parking, Khan Market, New Delhi, 110003",28.600324,77.226883,Charging,1,9.5,Payment Gateway/e-Wallet
Attar battery service Battery Smart,"NDMC Parking, Khan Market, New Delhi, 110003",28.600324,77.226883,Charging,1,9.5,Payment Gateway/e-Wallet
Gaba E Rickshaw Parking Battery Smart,"NDMC Parking, Khan Market, New Delhi, 110003",28.600324,77.226883,Charging,1,9.5,Payment Gateway/e-Wallet
MAK Tyson Swapping station Battery Smart,"NDMC Parking, Khan Market, New Delhi, 110003",28.600324,77.226883,Charging,1,9.5,Payment Gateway/e-Wallet
Shree Ram Parking Battery Smart,"NDMC Parking, Khan Market, New Delhi, 110003",28.600324,77.226883,Charging,1,9.5,Payment Gateway/e-Wallet
Rehan Charging Point Battery Smart,"NDMC Parking, Khan Market, New Delhi, 110003",28.600324,77.226883,Charging,1,9.5,Payment Gateway/e-Wallet
Jai Durga Charging Point  Battery Smart,"NDMC Parking, Khan Market, New Delhi, 110003",28.600324,77.226883,Charging,1,9.5,Payment Gateway/e-Wallet
Tata Power PP1 Battery Smart,"NDMC Parking, Khan Market, New Delhi, 110003",28.600324,77.226883,Charging,1,9.5,Payment Gateway/e-Wallet
Echargeup,"Shop No. - 3, WC-2, Near Yadav Market,Village Shakurpur,New Delhi",,,,80,,Cash/E Wallet
Echargeup,"WZ-455, Azadpur,Near Rikshaw stand New Delhi",,,,85,,Cash/E Wallet
Echargeup,"H. No. WPX-219, Wazirpur Village,Delhi",,,,150,,Cash/E Wallet
Echargeup,"B-675 Bunkar Colony,Ashok Vihar Phase-4,New Delhi",,,,30,,Cash/E Wallet
Echargeup,"1354 , 2nd Floor,Multani Mohalla,RaniBagh,North West Delhi",,,,30,,Cash/E Wallet
Echargeup,"Village Shakurpur, New Delhi",,,,80,,Cash/E Wallet
Echargeup,"H. No.-C-5, KH. No. -566, G.F, Rajiv Nagar, Bhalswa Dairy, New Delhi",,,,30,,Cash/E Wallet
Echargeup,"Pooth kalan village near Brahm shakti Hospital, Budh Vihar, New Delhi",,,,30,,Cash/E Wallet
Echargeup,CW579 Sanjay Gandhi Transport Nager,,,,30,,Cash/E Wallet
Echargeup,"H.NO-192 kumhar wali gali Rampura,Trinagar",,,,30,,Cash/E Wallet
Echargeup,"WZ-4202,A/2,Sant Nager ,Rani Bhag",,,,30,,Cash/E Wallet
Echargeup,"P.S.Bhawan, A-25, G.T.Karnal Road, Industrial Area",,,,30,,Cash/E Wallet
Echargeup,WZ-396 Shakurpur Village Delhi,,,,30,,Cash/E Wallet
Echargeup,A-1/120 SEC-17 Rohini,,,,30,,Cash/E Wallet
Echargeup,"J-2/67Sanjay Market,J.J Colony,Wazirpur,Delhi, Pincode",,,,30,,Cash/E Wallet
Echargeup,"E-104,Shakurpur,J.J Colony Delhi",,,,30,,Cash/E Wallet
Echargeup,"371, Gali no-7 village gopalpur",,,,30,,Cash/E Wallet
Echargeup,"C-76,Ramgarh jahangirpuri ,Metro Peelar No 133",,,,30,,Cash/E Wallet
Echargeup,"Residential Address - 37B,Wazirpur Village , Ashok Vihar ,Delhi",,,,30,,Cash/E Wallet
Echargeup,"N-19A/278 , J-3,T-HUT,J.J Colony,Wazirpur , Ashok Vihar Delhi",,,,30,,Cash/E Wallet
Echargeup,"N-19A,201 ,J.J.Colony,Zakhirpur Pincode",,,,30,,Cash/E Wallet
Echargeup,House no. 11A Near janta flat pitampura village,,,,20,,Cash/E Wallet
Echargeup,"H-106, JJ Colony, Wazirpur Delhi",,,,20,,Cash/E Wallet
Echargeup,"House No-120 A, Raja Vihar Samaypur Badli, Delhi",,,,15,,Cash/E Wallet
Echargeup,"Ground Floor, Floor Gate No. 2, Shakurpur City, Delhi",,,,15,,Cash/E Wallet
Echargeup,"Shop No-M-19, DDA, Market Shakurpur Village, Delhi",,,,10,,Cash/E Wallet
Echargeup,"KH No-58, Ground Floor BLK-A, Swami Sharda Nand Colony, Village Balswa Dairy Landmark Near Kali Mata Mandir, Delhi",,,,10,,Cash/E Wallet
Echargeup,"Shop No-1 & 2 , Nimri Colony, Near Deep Chand Bandhu Hospital, Ashok Vihar, New Delhi",,,,10,,Cash/E Wallet
Echargeup,"Shop No-186, kumhar wali gali Rampura, Trinager Delhi",,,,10,,Cash/E Wallet
Echargeup,"House No-E-2/124, Near Metro Station Shastri Nagar, New Delhi",,,,10,,Cash/E Wallet
